{
"type": "FeatureCollection",
"name": "AlarmcentralHovedstadOmraade",
"crs": { "type": "name", "properties": { "name": "urn:ogc:def:crs:EPSG::9057" } },
"features": [
{ "type": "Feature", "properties": { "fid": 1 }, "geometry": { "type": "Polygon", "coordinates": [ [ [ 12.492461365430419, 55.603711571352825 ], [ 12.451667394725918, 55.606489317483039 ], [ 12.450055543027474, 55.606534720847563 ], [ 12.448980972674448, 55.606564978003099 ], [ 12.448497120801362, 55.607188404433813 ], [ 12.44857727573485, 55.608100856324704 ], [ 12.447556083495261, 55.608739402914154 ], [ 12.44760950814084, 55.609347704646119 ], [ 12.447689648938097, 55.610260157066186 ], [ 12.447743078689012, 55.610868458560951 ], [ 12.448333863735442, 55.611461636871617 ], [ 12.448951392860469, 55.61235896232553 ], [ 12.449004846336148, 55.612967262803181 ], [ 12.449058301855153, 55.613575563185911 ], [ 12.44859427101032, 55.613237308586555 ], [ 12.448110335037555, 55.613860734094047 ], [ 12.446524883986388, 55.614210245610252 ], [ 12.445476801012257, 55.614544625843955 ], [ 12.446905736207723, 55.609016638270433 ], [ 12.445293772783671, 55.609061980410225 ], [ 12.444219127950017, 55.609092196748001 ], [ 12.443144481076338, 55.609122403681404 ], [ 12.441532506942151, 55.609167696448218 ], [ 12.440457854971168, 55.609197879870507 ], [ 12.439383200962361, 55.60922805388828 ], [ 12.437771216129615, 55.609273297281419 ], [ 12.436696557029009, 55.609303447787745 ], [ 12.43562189589279, 55.609333588889434 ], [ 12.434009900373056, 55.609378782908159 ], [ 12.432935234150547, 55.609408900498067 ], [ 12.431860565894626, 55.609439008683189 ], [ 12.429711223285068, 55.609499196838946 ], [ 12.428636548932687, 55.609529276809496 ], [ 12.427561872549415, 55.609559347375111 ], [ 12.426487194135877, 55.609589408535747 ], [ 12.424875172710207, 55.609634482642313 ], [ 12.423800489223767, 55.609664520290359 ], [ 12.422188460191693, 55.609709559127843 ], [ 12.421113771636286, 55.609739573263049 ], [ 12.420065581191496, 55.610073737590469 ], [ 12.418990880296084, 55.61010373325486 ], [ 12.417916177375396, 55.61013371951389 ], [ 12.416841472430059, 55.610163696367479 ], [ 12.41522941121722, 55.610208644012602 ], [ 12.41415470121302, 55.61023859735247 ], [ 12.413079989186381, 55.610268541286779 ], [ 12.411467917355713, 55.610313439552741 ], [ 12.41039320027572, 55.61034335997298 ], [ 12.409318481175488, 55.610373270987537 ], [ 12.407706398738574, 55.610418119873628 ], [ 12.406631674590505, 55.610448007373797 ], [ 12.405556948424399, 55.610477885468136 ], [ 12.403944855392812, 55.610522684973638 ], [ 12.40090276587593, 55.617360865628974 ], [ 12.399290382650319, 55.617405607592517 ], [ 12.39921134444185, 55.616493110100564 ], [ 12.399158654820882, 55.615884778321835 ], [ 12.400180831826637, 55.615246623189719 ], [ 12.400128129652209, 55.614638291898544 ], [ 12.400075429492492, 55.61402996051342 ], [ 12.400533785564088, 55.613102549284172 ], [ 12.401582228872268, 55.612768548986658 ], [ 12.402630654089425, 55.612434539934661 ], [ 12.402577919533066, 55.611826209909935 ], [ 12.402498821478142, 55.610913714696601 ], [ 12.402446091961115, 55.610305384436892 ], [ 12.402930718884798, 55.609682130208157 ], [ 12.402851618979676, 55.608769635008279 ], [ 12.402798888229116, 55.608161304757509 ], [ 12.402208834075376, 55.607567897104936 ], [ 12.40212975718177, 55.606655400904664 ], [ 12.402077041771369, 55.606047069986971 ], [ 12.40097608219266, 55.605772740796588 ], [ 12.399875137675631, 55.605498401502814 ], [ 12.398774208220585, 55.605224052106003 ], [ 12.398184260049835, 55.604630623472978 ], [ 12.397109683517996, 55.604660425511589 ], [ 12.395471510230355, 55.60440094330017 ], [ 12.394344345598894, 55.603822385473244 ], [ 12.393269786885652, 55.603852153586416 ], [ 12.392168947808837, 55.603577743577453 ], [ 12.391068123796122, 55.603303323467514 ], [ 12.389456300790341, 55.603347928783187 ], [ 12.389403788017939, 55.602739589545742 ], [ 12.388303006060077, 55.602465144004633 ], [ 12.387202239167232, 55.602190688363628 ], [ 12.386612511056365, 55.601597200916615 ], [ 12.385511779940209, 55.601322729586798 ], [ 12.384922090612784, 55.600729233433718 ], [ 12.383821395272374, 55.600454746416304 ], [ 12.382746916914883, 55.60048442115928 ], [ 12.374641856812989, 55.596621619830948 ], [ 12.373541345881266, 55.59634703788813 ], [ 12.372440850016286, 55.596072445850297 ], [ 12.370829292457829, 55.596116802593251 ], [ 12.369781015924794, 55.596450538126724 ], [ 12.368758811712508, 55.597088441315719 ], [ 12.367147206411222, 55.597132750204366 ], [ 12.365561662656667, 55.597481215329374 ], [ 12.365613796213477, 55.598089570041871 ], [ 12.36453936234976, 55.598119084447383 ], [ 12.362953754636683, 55.598467516582275 ], [ 12.361905346541997, 55.598801186282202 ], [ 12.36083088914255, 55.598830668446105 ], [ 12.359245218131365, 55.599179053339491 ], [ 12.358170747474947, 55.59920851232954 ], [ 12.35712227757741, 55.599542141838178 ], [ 12.356047794661064, 55.599571582355267 ], [ 12.355051271272005, 55.600513555094174 ], [ 12.353976759528202, 55.60054297780399 ], [ 12.352390955641125, 55.600891275564571 ], [ 12.351342390311462, 55.601224856735342 ], [ 12.349756534404882, 55.601573121015477 ], [ 12.348681987881919, 55.601602497704256 ], [ 12.347633371030694, 55.601936047743997 ], [ 12.346584736120867, 55.60226958902107 ], [ 12.34663658533516, 55.602877955080039 ], [ 12.345024706170776, 55.602921976261214 ], [ 12.343976022218762, 55.603255495784623 ], [ 12.342390015895862, 55.603603666495999 ], [ 12.340803980753261, 55.603951817018654 ], [ 12.339755232359325, 55.604285301175885 ], [ 12.338706465907084, 55.604618776567946 ], [ 12.3387581977435, 55.605227147281724 ], [ 12.33714620929792, 55.605271066139025 ], [ 12.336097393802925, 55.605604519770807 ], [ 12.335048560249504, 55.605937964636198 ], [ 12.333999708637663, 55.606271400734848 ], [ 12.332950838967422, 55.606604828066402 ], [ 12.33187613647914, 55.606634059247845 ], [ 12.331416217820253, 55.60756123388618 ], [ 12.329804121606458, 55.607605057455203 ], [ 12.32872938833164, 55.607634261409416 ], [ 12.327680436166519, 55.607967644593025 ], [ 12.326631465943443, 55.608301019007605 ], [ 12.325556710175519, 55.608330195402011 ], [ 12.324481952437623, 55.608359362389272 ], [ 12.322921306153468, 55.609011475361193 ], [ 12.321846526912688, 55.609040619490486 ], [ 12.320771745704043, 55.609069754212278 ], [ 12.319185288931086, 55.609417629840564 ], [ 12.318699322609227, 55.610040569412618 ], [ 12.317624510627892, 55.610069676900558 ], [ 12.316549696681056, 55.610098774980543 ], [ 12.314937472076865, 55.610142404460554 ], [ 12.313888331965487, 55.610475671783185 ], [ 12.31281350285286, 55.610504737264193 ], [ 12.311738671777521, 55.61053379333697 ], [ 12.310689493102251, 55.610867033728233 ], [ 12.309614649811561, 55.610896071313277 ], [ 12.30800238119908, 55.610939610050011 ], [ 12.306927533007386, 55.610968624113895 ], [ 12.305366484320295, 55.611620518239199 ], [ 12.304291614646926, 55.611649509438287 ], [ 12.303216743015733, 55.611678491228524 ], [ 12.302218639375637, 55.612620052396771 ], [ 12.300631866528139, 55.612967691511209 ], [ 12.29958252559438, 55.613300838694649 ], [ 12.297970142012431, 55.613344246799109 ], [ 12.296920767653036, 55.613677371582696 ], [ 12.295871375240774, 55.614010487588615 ], [ 12.294821964775656, 55.614343594816575 ], [ 12.294335550124275, 55.614966442951058 ], [ 12.293260576987331, 55.614995338627693 ], [ 12.292774129645654, 55.615618180921537 ], [ 12.291724649407882, 55.615951262421738 ], [ 12.290675151116616, 55.616284335142396 ], [ 12.28962563477188, 55.616617399083196 ], [ 12.289139110088248, 55.617240227785061 ], [ 12.288064069131373, 55.617269078697014 ], [ 12.287039981758685, 55.617906321456232 ], [ 12.285964920312225, 55.617935154198825 ], [ 12.285478321450466, 55.618557969187059 ], [ 12.284428699218894, 55.618890989830284 ], [ 12.283353608014082, 55.618919800022915 ], [ 12.290404927474068, 55.623121755010395 ], [ 12.288792125918453, 55.623165047485521 ], [ 12.287716922443698, 55.623193897369035 ], [ 12.286641717019529, 55.623222737839257 ], [ 12.285566509646587, 55.62325156889613 ], [ 12.283953694934594, 55.623294797831349 ], [ 12.283365179354822, 55.622700799839961 ], [ 12.281726942026522, 55.622439797567701 ], [ 12.281138473063891, 55.621845788231447 ], [ 12.280037869685968, 55.621570368044658 ], [ 12.279961589306279, 55.620657760268038 ], [ 12.278886444942527, 55.620686531911076 ], [ 12.277785889409866, 55.620411090851789 ], [ 12.276173178752043, 55.620454216060139 ], [ 12.275072647891134, 55.620178750306764 ], [ 12.273946753443948, 55.619599069969411 ], [ 12.272846261645398, 55.619323583695525 ], [ 12.272257974005175, 55.618729529203776 ], [ 12.271157518089923, 55.61845402727964 ], [ 12.270082424575021, 55.618482721020484 ], [ 12.268981990158437, 55.618207199274394 ], [ 12.267881570882698, 55.617931667443777 ], [ 12.266243628803366, 55.617670454264754 ], [ 12.265143242990677, 55.617394897397816 ], [ 12.264068172010656, 55.617423538074192 ], [ 12.262404987905674, 55.616858065192247 ], [ 12.260767124513688, 55.61659677776553 ], [ 12.259692070688708, 55.616625379822402 ], [ 12.25861701493163, 55.616653972467589 ], [ 12.257029672470059, 55.617001053566717 ], [ 12.257080163508679, 55.617609473054941 ], [ 12.256005078033256, 55.617638043141469 ], [ 12.254955220276512, 55.61797081417285 ], [ 12.253905344477817, 55.618303576415975 ], [ 12.252855450637201, 55.618636329870547 ], [ 12.251267974840433, 55.618983337871676 ], [ 12.250218039803308, 55.619316069203236 ], [ 12.249730851914975, 55.619938749335603 ], [ 12.248655694855863, 55.619967255796411 ], [ 12.247605710805908, 55.620299965303069 ], [ 12.246555708714144, 55.620632666019119 ], [ 12.246068446617517, 55.621255332401091 ], [ 12.244993249623699, 55.62128380720582 ], [ 12.243380450525741, 55.621326501762248 ], [ 12.242280113841007, 55.621050739029677 ], [ 12.242229845518365, 55.620442310955426 ], [ 12.241079292708591, 55.619558108597339 ], [ 12.239979021455561, 55.619282324324431 ], [ 12.238878765359162, 55.619006529971763 ], [ 12.237240956301557, 55.618744927369207 ], [ 12.236165818626059, 55.61877332396859 ], [ 12.235090679032099, 55.618801711154937 ], [ 12.234015537520312, 55.618830088928235 ], [ 12.232402821658088, 55.618872637938615 ], [ 12.231327675354493, 55.618900992179107 ], [ 12.230252527135276, 55.618929337006421 ], [ 12.23020244906369, 55.618320901493753 ], [ 12.229614814676099, 55.617726634132154 ], [ 12.229564748732148, 55.617118198117083 ], [ 12.228464623474267, 55.616842308536896 ], [ 12.228414576996892, 55.616233871744036 ], [ 12.227801984392519, 55.61533537628376 ], [ 12.227214432337972, 55.614741096168792 ], [ 12.226626898311261, 55.614146812968869 ], [ 12.226551879560585, 55.613234155690286 ], [ 12.225964378872813, 55.612639868788754 ], [ 12.225376896210038, 55.61204557880275 ], [ 12.224301929256635, 55.612073869193082 ], [ 12.224251956150979, 55.611465429430886 ], [ 12.224201984955904, 55.610856989578053 ], [ 12.223614556362763, 55.610262690339745 ], [ 12.223539618459093, 55.609350029774191 ], [ 12.223489662244061, 55.608741589283888 ], [ 12.222902277181424, 55.60814728593477 ], [ 12.221827414234609, 55.608175553341134 ], [ 12.22019016467917, 55.607913715522926 ], [ 12.219115305255039, 55.607941959085238 ], [ 12.217503012543146, 55.607984306785617 ], [ 12.216378304723014, 55.607404081948545 ], [ 12.215303455213373, 55.607432291938025 ], [ 12.213691177377543, 55.60747458927932 ], [ 12.212616323106996, 55.607502775744841 ], [ 12.211541466933189, 55.60753095280073 ], [ 12.209929179105252, 55.607573200741427 ], [ 12.208854318176057, 55.607601354273051 ], [ 12.207217172611083, 55.607339341743526 ], [ 12.206142315224, 55.60736747143212 ], [ 12.205067455937488, 55.607395591710947 ], [ 12.203992594752187, 55.607423702579993 ], [ 12.202917731668723, 55.607451804039222 ], [ 12.20130543348585, 55.607493938584568 ], [ 12.200230565659737, 55.607522016519084 ], [ 12.199155695937673, 55.607550085043648 ], [ 12.197005950808206, 55.607606193862821 ], [ 12.195931075402063, 55.607634234157338 ], [ 12.194856198102491, 55.607662265041768 ], [ 12.193781318910119, 55.607690286516068 ], [ 12.192731176465335, 55.608022528055578 ], [ 12.192243201470367, 55.60864498991775 ], [ 12.191168292665544, 55.608672988817851 ], [ 12.189555925913368, 55.608714969523149 ], [ 12.188530426613998, 55.609351406225827 ], [ 12.187455494604407, 55.609379372822232 ], [ 12.186405251939739, 55.609711561271887 ], [ 12.185354991268319, 55.610043740921164 ], [ 12.183742559164029, 55.610085645886578 ], [ 12.182667602069555, 55.610113570766124 ], [ 12.1816172979361, 55.610445718877166 ], [ 12.181666609043903, 55.611054184095281 ], [ 12.180591623290281, 55.611082091100428 ], [ 12.180103417810619, 55.61170450715003 ], [ 12.179028412637132, 55.611732400669489 ], [ 12.177465149849157, 55.612382690867079 ], [ 12.176463974768744, 55.613323263615307 ], [ 12.175388921518302, 55.613351125770627 ], [ 12.174338467863635, 55.613683213141975 ], [ 12.174387672230148, 55.614291682331917 ], [ 12.173899329461225, 55.614914075062259 ], [ 12.17394852929217, 55.615522544388163 ], [ 12.173997731004475, 55.616131013624361 ], [ 12.174046934598232, 55.616739482770839 ], [ 12.17412074351682, 55.617652186322346 ], [ 12.174169951814653, 55.618260655244534 ], [ 12.174219161994285, 55.618869124077001 ], [ 12.174292980792329, 55.619781827157475 ], [ 12.174342195676893, 55.620390295765645 ], [ 12.17492904446096, 55.620984837499392 ], [ 12.175002885593056, 55.621897539635555 ], [ 12.175052115367816, 55.622506007614156 ], [ 12.175101347025382, 55.623114475503037 ], [ 12.175175198042208, 55.624027177168095 ], [ 12.17576211576921, 55.624621713800558 ], [ 12.175811362321022, 55.625230181059727 ], [ 12.175885235680461, 55.626142881780204 ], [ 12.175934486941369, 55.626751348815006 ], [ 12.175983740086091, 55.62735981576003 ], [ 12.176057623335534, 55.628272516009304 ], [ 12.176106881190215, 55.628880982729953 ], [ 12.176156140929049, 55.629489449360847 ], [ 12.175692273810862, 55.630416083169763 ], [ 12.175203760916711, 55.631038481883863 ], [ 12.174177454535712, 55.631674806382854 ], [ 12.173175724819227, 55.632615356661908 ], [ 12.172687145550634, 55.633237745970249 ], [ 12.171660741360848, 55.633874050392606 ], [ 12.171196719474887, 55.634800668533984 ], [ 12.171245914028324, 55.635409137467605 ], [ 12.170757270724186, 55.636031519632787 ], [ 12.169755350621593, 55.636972043726026 ], [ 12.169266664905953, 55.637594420335006 ], [ 12.169315834686991, 55.63820289012596 ], [ 12.168851709712509, 55.639129500120248 ], [ 12.168900875885317, 55.639737970002216 ], [ 12.168412143672452, 55.640360343545169 ], [ 12.168485886812464, 55.641273048538245 ], [ 12.166921285292846, 55.641923217902367 ], [ 12.166970426679883, 55.642531688641071 ], [ 12.166506198574723, 55.643458290483885 ], [ 12.16655533634896, 55.644066761313503 ], [ 12.166066515194174, 55.64468912623019 ], [ 12.16584495574322, 55.643872265269039 ], [ 12.165770244547062, 55.643874194570635 ], [ 12.16576797031267, 55.643846026143244 ], [ 12.165715888684435, 55.643819143888777 ], [ 12.16569553334184, 55.643876123826793 ], [ 12.165434229522711, 55.644091260161389 ], [ 12.165278284355175, 55.644237598496161 ], [ 12.16494728518512, 55.644293581403787 ], [ 12.16350169940347, 55.645089888664877 ], [ 12.160522582954274, 55.64559366088119 ], [ 12.158093954120403, 55.651417703398486 ], [ 12.1578554166079, 55.65243296442317 ], [ 12.157199877556724, 55.655089074454395 ], [ 12.157961712169797, 55.659209990880257 ], [ 12.158856941847871, 55.661231039650232 ], [ 12.159120837749956, 55.662233357656 ], [ 12.159480271585233, 55.663284963231966 ], [ 12.159758775667797, 55.66446802710292 ], [ 12.169789380465312, 55.657397470162977 ], [ 12.169863202664828, 55.658310171391356 ], [ 12.169912419819267, 55.658918638764895 ], [ 12.169961638857622, 55.65952710604877 ], [ 12.170035470947726, 55.660439806806508 ], [ 12.170084694696316, 55.661048273866243 ], [ 12.168519343368409, 55.661698471043806 ], [ 12.168054942148972, 55.662625078576831 ], [ 12.167027709644, 55.663261351795889 ], [ 12.166538668121026, 55.663883719728354 ], [ 12.164997720885168, 55.664838108280165 ], [ 12.16394581234805, 55.665170121893127 ], [ 12.163456698725607, 55.66579247824496 ], [ 12.16240475131419, 55.666124479060507 ], [ 12.16135278584132, 55.666456471051511 ], [ 12.160863615349806, 55.667078817637595 ], [ 12.160912709018312, 55.667687289425771 ], [ 12.160961804566412, 55.668295761124455 ], [ 12.161035451413014, 55.669208468504685 ], [ 12.161084551660526, 55.669816939979647 ], [ 12.161671970193122, 55.670411534612086 ], [ 12.162748601593073, 55.670383774031329 ], [ 12.163360623272569, 55.671282595225925 ], [ 12.164461854998866, 55.671559054199115 ], [ 12.165563101970349, 55.671835503086783 ], [ 12.165612277308446, 55.672443971640583 ], [ 12.166713557123861, 55.672720409767514 ], [ 12.167301105287509, 55.673314975645823 ], [ 12.168377810560226, 55.673287164748487 ], [ 12.169503752299457, 55.673867810540592 ], [ 12.171143461211003, 55.674130293963813 ], [ 12.172269467700222, 55.674710913512349 ], [ 12.172318752415114, 55.675319377833645 ], [ 12.173933884347461, 55.675277590956533 ], [ 12.175059964862101, 55.675858183897823 ], [ 12.176136731895017, 55.675830304120346 ], [ 12.176724469836286, 55.676424822308043 ], [ 12.177801250695383, 55.676396927746381 ], [ 12.178902724600448, 55.676673253891025 ], [ 12.178952115892036, 55.677281714105661 ], [ 12.180028917961305, 55.677253799725364 ], [ 12.180078327806386, 55.677862259217285 ], [ 12.181693552355567, 55.677820369006632 ], [ 12.181742989086706, 55.678428827458958 ], [ 12.182819819749136, 55.678400888224552 ], [ 12.183921384256204, 55.678677168113779 ], [ 12.183970857153941, 55.679285625164162 ], [ 12.184020331946256, 55.67989408212464 ], [ 12.184069808633252, 55.680502538995199 ], [ 12.184144027216483, 55.681415224132458 ], [ 12.184193508640609, 55.682023680778229 ], [ 12.185858406541106, 55.682590189981596 ], [ 12.186960110429554, 55.682866440735566 ], [ 12.187009638260513, 55.683474895571088 ], [ 12.188086602049008, 55.683446908485088 ], [ 12.189702044173751, 55.68340491016189 ], [ 12.190779003217314, 55.683376899483648 ], [ 12.191880762491049, 55.68365310532397 ], [ 12.193496207146191, 55.683611056980695 ], [ 12.193545837831449, 55.68421950787053 ], [ 12.193595470417529, 55.684827958670283 ], [ 12.19364510490453, 55.685436409379946 ], [ 12.194233255231593, 55.686030837894968 ], [ 12.194821423654771, 55.686625263324565 ], [ 12.195434443486715, 55.687523910377358 ], [ 12.196536351836416, 55.687800072429859 ], [ 12.197638275430602, 55.688076224385163 ], [ 12.198740214268982, 55.688352366242945 ], [ 12.199842168351255, 55.688628498002934 ], [ 12.201457805568156, 55.688586342449888 ], [ 12.202534894663698, 55.688558226949844 ], [ 12.203611981852591, 55.68853010201142 ], [ 12.205227609059564, 55.688487896906913 ], [ 12.206304691479044, 55.688459748372715 ], [ 12.207381771989652, 55.68843159040027 ], [ 12.20899738917503, 55.688389335744972 ], [ 12.21007446491067, 55.688361154177059 ], [ 12.212842054522964, 55.689203317375714 ], [ 12.21391914857441, 55.689175101814882 ], [ 12.215534786063621, 55.689132760776808 ], [ 12.216611875330196, 55.689104521620258 ], [ 12.217738979188253, 55.689684708971754 ], [ 12.218816081296035, 55.689656450298045 ], [ 12.220431730864201, 55.689614044590542 ], [ 12.221533866327956, 55.689889979138364 ], [ 12.222610970061492, 55.689861687109769 ], [ 12.224226622064029, 55.689819231369995 ], [ 12.225328788803866, 55.690095131417216 ], [ 12.226405894155182, 55.690066806033435 ], [ 12.230839850977231, 55.69147448009938 ], [ 12.231916988398559, 55.691446105915929 ], [ 12.23250580661769, 55.692040342154243 ], [ 12.233608091999452, 55.692316166247927 ], [ 12.234196949178827, 55.69291039382243 ], [ 12.235837860745157, 55.693171996485162 ], [ 12.236940200634967, 55.693447789916554 ], [ 12.238067726167547, 55.694027784895411 ], [ 12.239759077000077, 55.694897757076227 ], [ 12.239809447181139, 55.695506179212174 ], [ 12.239859819291762, 55.696114601257158 ], [ 12.240937074700316, 55.696086146403935 ], [ 12.241012661501481, 55.696998778333018 ], [ 12.241601702943621, 55.697592967731907 ], [ 12.242190762512978, 55.698187154034159 ], [ 12.242779840210453, 55.698781337239588 ], [ 12.243882386158514, 55.699057065533907 ], [ 12.244471502835797, 55.699651240068818 ], [ 12.244521955182414, 55.700259658894382 ], [ 12.245111100264237, 55.700853829917691 ], [ 12.245700263478319, 55.701447997843289 ], [ 12.246289444825557, 55.702042162670971 ], [ 12.247930816302231, 55.702303597544734 ], [ 12.249058761109067, 55.702883485649053 ], [ 12.25016146584114, 55.703159155391702 ], [ 12.251777622382798, 55.703116330480512 ], [ 12.251828194779876, 55.703724744554741 ], [ 12.252930942004586, 55.704000388842388 ], [ 12.254008400365795, 55.703971816684501 ], [ 12.254623055072001, 55.704870145506874 ], [ 12.255700535552483, 55.704841558212728 ], [ 12.256803340499383, 55.705117166929135 ], [ 12.257906160676663, 55.705392765531208 ], [ 12.259522396964607, 55.705349837582936 ], [ 12.260599885395353, 55.705321207147129 ], [ 12.261677371883049, 55.705292567268451 ], [ 12.263293597969989, 55.705249589745158 ], [ 12.264371079597284, 55.705220926259493 ], [ 12.265448559279305, 55.705192253331099 ], [ 12.267064775153555, 55.705149226233459 ], [ 12.268142249969607, 55.705120529698405 ], [ 12.269219722838161, 55.705091823720736 ], [ 12.270835928488037, 55.705048747049432 ], [ 12.27191339648506, 55.705020017465408 ], [ 12.272990862532353, 55.704991278438918 ], [ 12.27460705794617, 55.704948152194632 ], [ 12.275659046228942, 55.704615189823635 ], [ 12.276736497105047, 55.70458641807501 ], [ 12.278352669758009, 55.704543242747974 ], [ 12.279430115751586, 55.704514447393926 ], [ 12.280482049853063, 55.704181444305334 ], [ 12.282047156299825, 55.703529824223899 ], [ 12.283124570426637, 55.703500996803264 ], [ 12.284201982597249, 55.703472159940965 ], [ 12.285766997317655, 55.702820493468295 ], [ 12.286844387913117, 55.702791633656481 ], [ 12.28792177655026, 55.702762764403339 ], [ 12.289512277441517, 55.702415247194509 ], [ 12.290564066597943, 55.702082159343718 ], [ 12.291641431695183, 55.702053257701692 ], [ 12.293257475663825, 55.702009887536882 ], [ 12.294257992503686, 55.701068379630563 ], [ 12.295873991584422, 55.701024975538928 ], [ 12.296925687532179, 55.700691834230945 ], [ 12.297977365328274, 55.700358684116175 ], [ 12.299054674987259, 55.70032971803051 ], [ 12.300670635790656, 55.700286251201753 ], [ 12.301722269673437, 55.699953069501746 ], [ 12.302773885403591, 55.699619878996245 ], [ 12.30438981086497, 55.699576363593984 ], [ 12.305467092045596, 55.699547341526106 ], [ 12.30651866385595, 55.699214119438786 ], [ 12.30646725053052, 55.698605738210162 ], [ 12.308083128133338, 55.698562174731201 ], [ 12.309160377405666, 55.698533120612765 ], [ 12.310186154987447, 55.697895678039878 ], [ 12.311750504470188, 55.697243687875201 ], [ 12.312827713491894, 55.697214602038585 ], [ 12.313289044306606, 55.696287489713953 ], [ 12.314366225358494, 55.69625839070904 ], [ 12.315443404436524, 55.696229282265811 ], [ 12.316469018685144, 55.695591789004375 ], [ 12.317546177141324, 55.695562662345054 ], [ 12.319161911121034, 55.695518954659796 ], [ 12.320239064636866, 55.695489804405526 ], [ 12.320829270196519, 55.696083598476029 ], [ 12.321419493911604, 55.696677389433347 ], [ 12.323061100701819, 55.696937815840755 ], [ 12.323651371256505, 55.697531595401919 ], [ 12.325293027781212, 55.697791991274023 ], [ 12.32693470535537, 55.698052364892987 ], [ 12.328011920042668, 55.69802314559287 ], [ 12.328063666869626, 55.698631513610813 ], [ 12.329166778742804, 55.698906467852169 ], [ 12.330782631599099, 55.698862605554915 ], [ 12.33188576818992, 55.699137535015602 ], [ 12.332963007300366, 55.699108271914987 ], [ 12.334604787416046, 55.699368541504136 ], [ 12.335682029899464, 55.699339254474381 ], [ 12.33675927039601, 55.699309958005749 ], [ 12.338401082263797, 55.699570176357099 ], [ 12.339556218672231, 55.700453397078874 ], [ 12.34065945907331, 55.700728246238654 ], [ 12.340711407593759, 55.701336606157682 ], [ 12.342353329227414, 55.701596770136064 ], [ 12.343430624490106, 55.701567414372462 ], [ 12.34404727442576, 55.70246526959059 ], [ 12.345176612917678, 55.703044255646489 ], [ 12.346279964579564, 55.703319052739587 ], [ 12.346332005449344, 55.703927408911589 ], [ 12.346384048312864, 55.704535764990645 ], [ 12.347487450509211, 55.70481055052818 ], [ 12.347539513043428, 55.705418905801267 ], [ 12.348668988954866, 55.705997857740229 ], [ 12.348747114510147, 55.706910389335881 ], [ 12.350415376595684, 55.707474618551821 ], [ 12.350467489813013, 55.70808297173901 ], [ 12.350519605027037, 55.708691324833168 ], [ 12.350571722237861, 55.709299677834295 ], [ 12.350623841445591, 55.709908030742383 ], [ 12.349572376629379, 55.710241629234218 ], [ 12.349085710471417, 55.710864690498987 ], [ 12.348599029124843, 55.711487749977174 ], [ 12.348112332588805, 55.712110807668601 ], [ 12.347112857803291, 55.713052740336749 ], [ 12.347164930585441, 55.713661095021379 ], [ 12.346113335447283, 55.713994665352381 ], [ 12.345035701174945, 55.714024048932167 ], [ 12.344010090614809, 55.714661779612541 ], [ 12.342393607442482, 55.714705824108144 ], [ 12.341315949503251, 55.714735175300056 ], [ 12.34082909741486, 55.715358205803369 ], [ 12.339777401012411, 55.715691723016725 ], [ 12.338699713057604, 55.715721051595906 ], [ 12.337673953652709, 55.716358731035712 ], [ 12.336109297456924, 55.717011054235535 ], [ 12.335031569152594, 55.717040351087448 ], [ 12.334005714953378, 55.717678000939713 ], [ 12.332953896424046, 55.718011461085389 ], [ 12.332466871051713, 55.718634460324608 ], [ 12.331389094054163, 55.71866372577778 ], [ 12.330902035788311, 55.719286719167563 ], [ 12.33095386875271, 55.719895083280257 ], [ 12.330466788918933, 55.720518075118562 ], [ 12.330518617507778, 55.721126439377727 ], [ 12.330596364115639, 55.722038985592739 ], [ 12.33064819767076, 55.722647349620267 ], [ 12.330700033212574, 55.723255713555119 ], [ 12.330777790250574, 55.72416825928368 ], [ 12.330829630759577, 55.724776622986887 ], [ 12.330881473255641, 55.72538498659744 ], [ 12.331524162495827, 55.726587082403888 ], [ 12.332115025447067, 55.727180811573795 ], [ 12.333218977917287, 55.727455717793291 ], [ 12.333296805935978, 55.728368260556906 ], [ 12.333374638429824, 55.729280803111912 ], [ 12.333965571482691, 55.729874522287432 ], [ 12.334017472641083, 55.730482883450009 ], [ 12.334608434236415, 55.731076599081049 ], [ 12.335199414032317, 55.731670311592318 ], [ 12.335816378871806, 55.732568200892565 ], [ 12.337485571141478, 55.733132592483429 ], [ 12.338615718990763, 55.733711626557863 ], [ 12.339232795737351, 55.734609497038136 ], [ 12.340363012423543, 55.7351885140422 ], [ 12.341467248434194, 55.735463342180267 ], [ 12.341519277131802, 55.736071698137614 ], [ 12.341649357603186, 55.737592587624704 ], [ 12.341701393282962, 55.738200943257006 ], [ 12.34175343095788, 55.73880929879644 ], [ 12.340701119492822, 55.739142830735155 ], [ 12.339674793682413, 55.739780532218056 ], [ 12.338057265300838, 55.739824532618805 ], [ 12.337004894023718, 55.740158033565827 ], [ 12.335413317059693, 55.740506178654563 ], [ 12.334926065078905, 55.741129188783908 ], [ 12.333334429299541, 55.741477307603098 ], [ 12.332847132337481, 55.742100309967284 ], [ 12.332359820148429, 55.742723310539589 ], [ 12.33133326365598, 55.743360944860179 ], [ 12.329767434792814, 55.74401319974298 ], [ 12.328175633902903, 55.744361253589467 ], [ 12.327123054225174, 55.74469467220375 ], [ 12.32607045633412, 55.74502808200306 ], [ 12.325069632286754, 55.745969848137989 ], [ 12.32399109382674, 55.74599905805065 ], [ 12.322399158281499, 55.746347038559364 ], [ 12.321346474497458, 55.74668040884103 ], [ 12.320293772499998, 55.74701377030577 ], [ 12.318162469465218, 55.747376282182742 ], [ 12.31708388465904, 55.74740543195594 ], [ 12.316005297871246, 55.747434572272823 ], [ 12.314926709102473, 55.747463703133384 ], [ 12.313899740740933, 55.748101196359812 ], [ 12.312821131285013, 55.74813030896815 ], [ 12.310689693280986, 55.748492692681864 ], [ 12.309611069525529, 55.748521777250055 ], [ 12.308532443792767, 55.74855085236139 ], [ 12.307453816083338, 55.748579918015785 ], [ 12.305861620514611, 55.748927687093655 ], [ 12.304782979501963, 55.748956729435093 ], [ 12.303730069979837, 55.749289951283316 ], [ 12.302651416654252, 55.749318975039692 ], [ 12.301572761355404, 55.749347989338723 ], [ 12.299415444840474, 55.749405989564607 ], [ 12.29833678362567, 55.74943497549139 ], [ 12.297258120440155, 55.749463951960692 ], [ 12.29617945528457, 55.749492918972457 ], [ 12.29510078815955, 55.749521876526664 ], [ 12.294022119065737, 55.749550824623263 ], [ 12.292404111734921, 55.74959422903509 ], [ 12.291325437721913, 55.749623153487534 ], [ 12.290221132838587, 55.749347875409804 ], [ 12.288577511866587, 55.749087036089335 ], [ 12.286882707881142, 55.748217786210077 ], [ 12.286292193268929, 55.747623836462708 ], [ 12.284674253133069, 55.747667138128492 ], [ 12.283570048644542, 55.747391798884955 ], [ 12.282491425836907, 55.747420645056117 ], [ 12.280847934071739, 55.747159700540507 ], [ 12.279769314727107, 55.747188522741652 ], [ 12.278690693423073, 55.74721733548563 ], [ 12.277072757794555, 55.747260536869362 ], [ 12.275994131594825, 55.747289325970279 ], [ 12.27491550343793, 55.747318105613921 ], [ 12.27442719649428, 55.747940887867522 ], [ 12.274478206319118, 55.74854928375418 ], [ 12.274529218100369, 55.749157679549235 ], [ 12.274580231838135, 55.749766075252687 ], [ 12.273501533824478, 55.749794843321425 ], [ 12.273552532786708, 55.750403239586092 ], [ 12.2692470100977, 55.749784565060146 ], [ 12.269297942829544, 55.75039296390986 ], [ 12.269348877514936, 55.751001362668077 ], [ 12.264842089443963, 55.751971829226818 ], [ 12.264892957792306, 55.752580230530526 ], [ 12.269490574728918, 55.755433563679858 ], [ 12.269877704979784, 55.75676878143581 ], [ 12.269928660858188, 55.757377179207118 ], [ 12.272495298563253, 55.757138738569374 ], [ 12.272546295895326, 55.75774713471413 ], [ 12.272597295183752, 55.758355530767304 ], [ 12.272648296428638, 55.758963926728896 ], [ 12.273264290765198, 55.759862139357203 ], [ 12.274368782279272, 55.760137567364161 ], [ 12.275473289067794, 55.760412985233302 ], [ 12.27657781113046, 55.760688392964326 ], [ 12.277656806502925, 55.760659594217614 ], [ 12.279275295886904, 55.760616378356367 ], [ 12.280354286358815, 55.7605875559548 ], [ 12.281433274869382, 55.760558724091332 ], [ 12.281921618960508, 55.75993591448055 ], [ 12.283000587785583, 55.75990706907902 ], [ 12.284079554647819, 55.759878214215917 ], [ 12.285132920455633, 55.759545155773743 ], [ 12.285081723746762, 55.758936767469791 ], [ 12.286700129744403, 55.758893454717047 ], [ 12.287753446076632, 55.758560374354992 ], [ 12.288806744194559, 55.758227285164701 ], [ 12.290425114763051, 55.75818392372534 ], [ 12.29147837916177, 55.757850812008137 ], [ 12.292531625345585, 55.757517691463725 ], [ 12.294149960475233, 55.757474281340627 ], [ 12.295228848100317, 55.757445329433025 ], [ 12.296307733755587, 55.757416368065023 ], [ 12.297926058543682, 55.75737290827486 ], [ 12.29903064421991, 55.757648113243945 ], [ 12.300160959459314, 55.758227497684587 ], [ 12.301856495089947, 55.759096553966145 ], [ 12.302473157887325, 55.759994611614161 ], [ 12.303577848917541, 55.760269774254283 ], [ 12.304194570565782, 55.761167822389069 ], [ 12.305813037847269, 55.761124256840695 ], [ 12.306917783520293, 55.761399388697932 ], [ 12.30750882458875, 55.761993231589081 ], [ 12.308587822452703, 55.761964160881661 ], [ 12.309666818338339, 55.761935080712576 ], [ 12.310745812245026, 55.761905991081868 ], [ 12.311824804172122, 55.761876891989573 ], [ 12.313443288349637, 55.761833225610751 ], [ 12.314573935894419, 55.762412472846954 ], [ 12.315652937629974, 55.762383339978228 ], [ 12.317271436515787, 55.762339622934611 ], [ 12.31835043329372, 55.762310466411883 ], [ 12.319429428087489, 55.762281300427631 ], [ 12.321022035798109, 55.761933350716447 ], [ 12.322075128625345, 55.761599978723375 ], [ 12.323154099728175, 55.761570780286689 ], [ 12.324772552656723, 55.761526964892013 ], [ 12.325851518791017, 55.761497742802518 ], [ 12.326904557134332, 55.761164330034248 ], [ 12.328522987067817, 55.761120465466753 ], [ 12.329575991639205, 55.760787030184524 ], [ 12.330654932080117, 55.760757766184675 ], [ 12.332273339007598, 55.760713852446159 ], [ 12.333352274469059, 55.760684564794694 ], [ 12.334431207937621, 55.760655267682644 ], [ 12.336049604402387, 55.760611304276061 ], [ 12.337102528566364, 55.760277805405082 ], [ 12.337589972363363, 55.75965478569006 ], [ 12.338668872746386, 55.759625451734621 ], [ 12.339747771133476, 55.759596108319109 ], [ 12.340826667523993, 55.759566755443565 ], [ 12.341905561917297, 55.759537393108019 ], [ 12.343523899761088, 55.759493331867276 ], [ 12.344602789158575, 55.75946394588189 ], [ 12.345655606783662, 55.759130374924759 ], [ 12.34724783975228, 55.758782089485621 ], [ 12.348300615719044, 55.758448496334417 ], [ 12.349353373448727, 55.758114894368255 ], [ 12.350971640078379, 55.758070735803848 ], [ 12.352024364015231, 55.757737111335437 ], [ 12.35197212955952, 55.757128764062728 ], [ 12.3530509443698, 55.757099304739377 ], [ 12.354643025433155, 55.756750925183646 ], [ 12.355695681605363, 55.756417270023654 ], [ 12.35677447266465, 55.756387778263857 ], [ 12.358392655491542, 55.756343522889544 ], [ 12.359445267493113, 55.7560098361078 ], [ 12.360497861256189, 55.755676140514339 ], [ 12.362116008442932, 55.755631836488902 ], [ 12.363116165276821, 55.754689777830713 ], [ 12.364194900449256, 55.754660221539183 ], [ 12.365812999437992, 55.75461586936877 ], [ 12.366891729582937, 55.754586289433121 ], [ 12.367970457715771, 55.754556700039906 ], [ 12.369588546140911, 55.754512298217215 ], [ 12.370667269240672, 55.754482685180207 ], [ 12.371745990326083, 55.754453062685769 ], [ 12.371798527300845, 55.755061397883317 ], [ 12.373442912037346, 55.755321112459711 ], [ 12.374547943840355, 55.755595632012344 ], [ 12.375652990861889, 55.755870141410995 ], [ 12.377271120863892, 55.755825637761248 ], [ 12.378402514078569, 55.756404287765164 ], [ 12.379533940756664, 55.756982926870279 ], [ 12.381178454236826, 55.757242536084149 ], [ 12.382257239807892, 55.757212820374562 ], [ 12.382849346217544, 55.757806286968517 ], [ 12.385033317419106, 55.758050979655359 ], [ 12.38613850456519, 55.758325392756838 ], [ 12.386730686779275, 55.758918839574271 ], [ 12.387809512434401, 55.758889074548271 ], [ 12.388914742054473, 55.759163462075925 ], [ 12.389993572025629, 55.759133677794885 ], [ 12.391072399970374, 55.759103884055271 ], [ 12.392717073867301, 55.759363336516543 ], [ 12.393822349764752, 55.759637679236 ], [ 12.394927640874684, 55.75991201179653 ], [ 12.396572372578417, 55.760171411822341 ], [ 12.396625307275491, 55.760779730852789 ], [ 12.397704173250492, 55.760749878330181 ], [ 12.398783037194296, 55.760720016348628 ], [ 12.400401329300099, 55.760675205640787 ], [ 12.401480188163102, 55.760645320011974 ], [ 12.402559044992675, 55.760615424924318 ], [ 12.404124274585293, 55.759962250273666 ], [ 12.405203109594542, 55.759932332218035 ], [ 12.406228859299002, 55.759294091683905 ], [ 12.407847079841861, 55.759249183697221 ], [ 12.40887276792686, 55.758610921801221 ], [ 12.409924991172266, 55.758276807139282 ], [ 12.410411237310132, 55.757653513596217 ], [ 12.411490001534911, 55.757623541170815 ], [ 12.412568763720671, 55.757593559287898 ], [ 12.413594330609669, 55.756955259357333 ], [ 12.415159225596867, 55.756301947972005 ], [ 12.416237947181793, 55.756271934350252 ], [ 12.417236795899942, 55.755329451643227 ], [ 12.41882819861368, 55.754980248081495 ], [ 12.419880236608178, 55.754646050296039 ], [ 12.420932256342983, 55.754311843712578 ], [ 12.422550245824445, 55.754266744785006 ], [ 12.423602231687369, 55.753932515731641 ], [ 12.424654199290018, 55.753598277881359 ], [ 12.426272152942298, 55.753553130334218 ], [ 12.427350786151486, 55.753523020149835 ], [ 12.427836695174802, 55.75289966156241 ], [ 12.428915308587008, 55.752869537878091 ], [ 12.429993919950427, 55.752839404738396 ], [ 12.430047360213326, 55.753447703320539 ], [ 12.430100802525759, 55.754056001808074 ], [ 12.430154246887835, 55.754664300201014 ], [ 12.430234417274264, 55.755576747613063 ], [ 12.430287866760915, 55.756185045769492 ], [ 12.430341318297588, 55.75679334383134 ], [ 12.430421499446616, 55.757705790746712 ], [ 12.430474956108808, 55.75831408857205 ], [ 12.430528414821394, 55.758922386302757 ], [ 12.430608606735001, 55.759834832721467 ], [ 12.429529802998745, 55.759864973725236 ], [ 12.42904383910273, 55.760488339200499 ], [ 12.427991727332239, 55.760822616267554 ], [ 12.42804515241474, 55.761430915329434 ], [ 12.427585856240549, 55.762358424973783 ], [ 12.427099831558934, 55.762981783346902 ], [ 12.427153247079069, 55.76359008276134 ], [ 12.427233374201327, 55.764502531705737 ], [ 12.419701665161121, 55.767708339922059 ], [ 12.418649277990976, 55.768042540142879 ], [ 12.418729219861898, 55.768954996528301 ], [ 12.418269619549129, 55.769882474369254 ], [ 12.418322911381205, 55.770490778707597 ], [ 12.418402852963128, 55.771403235038122 ], [ 12.418456149907104, 55.772011539140522 ], [ 12.419049033355641, 55.772604819946388 ], [ 12.42012820074075, 55.772574766445139 ], [ 12.420208190738121, 55.773487220745572 ], [ 12.420801123819375, 55.77408049234257 ], [ 12.421394075182995, 55.774673760797008 ], [ 12.422473297089338, 55.774643685981715 ], [ 12.422526663901257, 55.77525198717683 ], [ 12.424172214778721, 55.77551100623598 ], [ 12.425251456686931, 55.775480906737933 ], [ 12.426330696545717, 55.775450797776429 ], [ 12.435535587852959, 55.772807588480958 ], [ 12.436614742225718, 55.772777390186839 ], [ 12.43772069431269, 55.773051328288155 ], [ 12.43936624433371, 55.773310143717282 ], [ 12.44044540825311, 55.773279911619461 ], [ 12.441551400217161, 55.773553814668979 ], [ 12.442171490518378, 55.774451123340647 ], [ 12.443250682782303, 55.774420866213788 ], [ 12.443304372740624, 55.775029154189639 ], [ 12.443358064759066, 55.775637442070632 ], [ 12.443438606649684, 55.77654987371421 ], [ 12.443492303818896, 55.777158161358038 ], [ 12.442413036190386, 55.777188421575346 ], [ 12.441360599109967, 55.777522816802069 ], [ 12.440334968998012, 55.778161347996658 ], [ 12.438769646772597, 55.778814984226877 ], [ 12.437717133871251, 55.779149349127593 ], [ 12.436637804669395, 55.779179559351526 ], [ 12.433993027313951, 55.779863336942825 ], [ 12.432940443881359, 55.780197661752204 ], [ 12.431321397739987, 55.780242911193795 ], [ 12.430242031078564, 55.780273065656964 ], [ 12.429189403276528, 55.780607358855633 ], [ 12.428703188948303, 55.781230724648466 ], [ 12.427623792024605, 55.781260856474894 ], [ 12.427137544700409, 55.781884216441995 ], [ 12.426651282159511, 55.782507574631879 ], [ 12.426758179474223, 55.783724170049723 ], [ 12.426811631208555, 55.784332467616828 ], [ 12.426865084994343, 55.784940765089388 ], [ 12.426918540831696, 55.785549062467389 ], [ 12.426971998720727, 55.786157359750852 ], [ 12.427025458661539, 55.786765656939764 ], [ 12.427105652420085, 55.787678102545854 ], [ 12.427159117490826, 55.788286399498389 ], [ 12.427212584613724, 55.78889469635638 ], [ 12.427319525016433, 55.790111289788655 ], [ 12.427372998296457, 55.790719586362975 ], [ 12.426346796063555, 55.791358007019213 ], [ 12.425860408748175, 55.791981362967505 ], [ 12.424807429843895, 55.792315622635776 ], [ 12.424321006343234, 55.792938972878318 ], [ 12.423241280707561, 55.792969070355689 ], [ 12.42218825210559, 55.793303308158315 ], [ 12.420595331178333, 55.793652573209634 ], [ 12.42064870675634, 55.794260873705731 ], [ 12.41959562058358, 55.79459508995803 ], [ 12.418569188917564, 55.795233448246755 ], [ 12.417542723711671, 55.795871798335043 ], [ 12.416462909297936, 55.795901837327392 ], [ 12.415976308604407, 55.796525156507791 ], [ 12.416029617931832, 55.797133459649231 ], [ 12.415542995662101, 55.797756777295838 ], [ 12.415083007245501, 55.798684244943843 ], [ 12.415162957588374, 55.799596700148044 ], [ 12.415216260374953, 55.800205003499592 ], [ 12.41580954129957, 55.800798292820915 ], [ 12.416402840535421, 55.801391578997915 ], [ 12.417562821424214, 55.802273991124785 ], [ 12.417616166976785, 55.802882292687862 ], [ 12.419262861779512, 55.803141362009782 ], [ 12.419316235572552, 55.803749662407682 ], [ 12.420449656583429, 55.804327895221213 ], [ 12.420529749359945, 55.805240344475337 ], [ 12.421636524655565, 55.805514415849842 ], [ 12.422256698910697, 55.806411820566197 ], [ 12.423336797683708, 55.806381727000321 ], [ 12.423930298494396, 55.806974973810632 ], [ 12.423983752740662, 55.807583270862295 ], [ 12.425090618283349, 55.807857309865994 ], [ 12.425684168838389, 55.808450547453816 ], [ 12.425737653392298, 55.809058843243562 ], [ 12.42633123271721, 55.809652077247605 ], [ 12.427438173273325, 55.809926094057673 ], [ 12.428571895155972, 55.810504247593741 ], [ 12.42916553999358, 55.811097466950621 ], [ 12.430272540925547, 55.81137145738618 ], [ 12.430326102897034, 55.811979749965332 ], [ 12.431406346737218, 55.811949583572378 ], [ 12.431459927552829, 55.812557875371873 ], [ 12.431513510426198, 55.813166167076716 ], [ 12.431567095357437, 55.813774458686929 ], [ 12.431620682346651, 55.814382750202462 ], [ 12.431727862499434, 55.815599332949581 ], [ 12.431781455663222, 55.816207624181146 ], [ 12.430701094299794, 55.81623779536978 ], [ 12.430214482881132, 55.816861169574572 ], [ 12.430268054973446, 55.817469461644563 ], [ 12.430348416970064, 55.818381899572124 ], [ 12.429861774455029, 55.81900527261741 ], [ 12.429375116688878, 55.819628643883313 ], [ 12.428915222522029, 55.820556159670033 ], [ 12.427401564271207, 55.821817964455121 ], [ 12.426914833407938, 55.822441326698367 ], [ 12.425861051066127, 55.82277560450148 ], [ 12.425914567116525, 55.823383898753647 ], [ 12.424887501573108, 55.824022315783061 ], [ 12.423293361069085, 55.824371630212866 ], [ 12.422806533520479, 55.8249949772216 ], [ 12.421725918505851, 55.825025072676588 ], [ 12.421239057868238, 55.825648413847127 ], [ 12.41961810475391, 55.825693533166465 ], [ 12.418590874465819, 55.82633189947267 ], [ 12.417536913847771, 55.826666107980294 ], [ 12.416456246565588, 55.826696157735647 ], [ 12.414835241797698, 55.826741214590264 ], [ 12.413781236708047, 55.827075391423186 ], [ 12.412186866879189, 55.827424564501861 ], [ 12.411106172546347, 55.827454567529159 ], [ 12.4100521151001, 55.827788713001951 ], [ 12.408971408270498, 55.827818697405291 ], [ 12.407917322035134, 55.828152824911292 ], [ 12.406836602710964, 55.828182790690065 ], [ 12.404728354325279, 55.828851000940631 ], [ 12.403647612061739, 55.828880938951485 ], [ 12.402659638125606, 55.831426419348823 ], [ 12.402675457469746, 55.831607403586084 ], [ 12.403004934137876, 55.831688991742723 ], [ 12.403020755241254, 55.831869975907317 ], [ 12.403197361409779, 55.832046507709151 ], [ 12.403213183618885, 55.832227491826998 ], [ 12.403534754739809, 55.832218586428318 ], [ 12.403566402676709, 55.832580554518657 ], [ 12.403590139104239, 55.832852030564531 ], [ 12.403774665151564, 55.833119053427041 ], [ 12.403790490678118, 55.833300037404612 ], [ 12.403806316385589, 55.833481021373871 ], [ 12.403830055286019, 55.833752497312119 ], [ 12.403845881445793, 55.833933481260551 ], [ 12.403861707786493, 55.834114465200642 ], [ 12.403893361010685, 55.834476433055841 ], [ 12.403909187894181, 55.834657416970948 ], [ 12.403780045178239, 55.835023838256809 ], [ 12.403795871860414, 55.835204822177026 ], [ 12.403819612222936, 55.835476298041705 ], [ 12.40385126667293, 55.835838265832137 ], [ 12.403875007985413, 55.83610974165309 ], [ 12.403898749705034, 55.83638121745529 ], [ 12.403922491831811, 55.836652693238769 ], [ 12.403962062947906, 55.837105152836209 ], [ 12.40400163519505, 55.83755761238158 ], [ 12.404017464410611, 55.837738596185162 ], [ 12.404033293807146, 55.837919579980387 ], [ 12.404057038241291, 55.838191055657632 ], [ 12.404072868090283, 55.838372039432038 ], [ 12.404112443504593, 55.83882449883162 ], [ 12.404128273987054, 55.839005482576866 ], [ 12.404144104650511, 55.839186466313784 ], [ 12.404167850985074, 55.839457941903547 ], [ 12.404191597726896, 55.839729417474551 ], [ 12.404207429114368, 55.839910401178138 ], [ 12.404223260682857, 55.840091384873404 ], [ 12.404239092432356, 55.840272368560328 ], [ 12.404262840396013, 55.840543844075107 ], [ 12.404294504981133, 55.840905811398976 ], [ 12.404318253895168, 55.84117728687 ], [ 12.404342003216522, 55.841448762322258 ], [ 12.404357836323717, 55.841629745946712 ], [ 12.404067851582793, 55.842000621820056 ], [ 12.404083683744174, 55.842181605479709 ], [ 12.403938688780535, 55.842367043201051 ], [ 12.403962436516856, 55.842638518707581 ], [ 12.403978268567354, 55.842819502368179 ], [ 12.403994100798885, 55.843000486020458 ], [ 12.404033682169739, 55.843452945114684 ], [ 12.404049515034901, 55.843633928737788 ], [ 12.404073264672103, 55.843905404156843 ], [ 12.404249932368897, 55.844081933403082 ], [ 12.404595354657834, 55.844344499313415 ], [ 12.404627026847214, 55.844706466287327 ], [ 12.40480370080736, 55.844882994640315 ], [ 12.405004133787026, 55.845330997807999 ], [ 12.405341652449977, 55.845503069689421 ], [ 12.405365412757554, 55.845774544661019 ], [ 12.405871700095142, 55.846032650512448 ], [ 12.405887543032293, 55.846213633713568 ], [ 12.406225073317753, 55.846385703001623 ], [ 12.406546760303703, 55.84637678825694 ], [ 12.406723450751564, 55.846553313603415 ], [ 12.407053063279077, 55.846634889022162 ], [ 12.407382677160014, 55.846716463538584 ], [ 12.407888990052573, 55.846974560722067 ], [ 12.408371526923265, 55.846961181673862 ], [ 12.408861992032397, 55.847038292043145 ], [ 12.409352459012922, 55.847115400429935 ], [ 12.409674150978756, 55.847106477434288 ], [ 12.410003774106682, 55.847188044796347 ], [ 12.410647158620757, 55.847170194544809 ], [ 12.411129696530063, 55.847156804651242 ], [ 12.411781015258637, 55.847229439549601 ], [ 12.412102707353073, 55.8472205101938 ], [ 12.412769904425705, 55.847474121767171 ], [ 12.413091598209627, 55.847465189800886 ], [ 12.414064619350924, 55.847528879672211 ], [ 12.414386313153175, 55.847519944315827 ], [ 12.415045586575131, 55.847683052515698 ], [ 12.415375225315829, 55.847764605261908 ], [ 12.415704865409666, 55.84784615710565 ], [ 12.41588160381799, 55.848022668636908 ], [ 12.416203301089237, 55.848013728479373 ], [ 12.416532944960945, 55.848095278050693 ], [ 12.416862590185769, 55.848176826719488 ], [ 12.41736103495591, 55.848344393273685 ], [ 12.417706583235924, 55.848606920573118 ], [ 12.417722482695108, 55.848787901467873 ], [ 12.418052136211619, 55.848869446832339 ], [ 12.418566498541963, 55.849217989091436 ], [ 12.418904110093999, 55.849390022444538 ], [ 12.419241724625103, 55.849562054828276 ], [ 12.419916962624626, 55.849906116687663 ], [ 12.420093729634257, 55.85008262174992 ], [ 12.420423398944529, 55.850164160537503 ], [ 12.420447268531742, 55.850435631037833 ], [ 12.420945757487688, 55.850603182438462 ], [ 12.421122532400362, 55.850779685904648 ], [ 12.421307267694354, 55.851046679166323 ], [ 12.421484046322837, 55.851223182055385 ], [ 12.421660826577547, 55.851399684665516 ], [ 12.421853528886066, 55.851757167023372 ], [ 12.422207099380762, 55.85211017077178 ], [ 12.422238944490008, 55.852472130645431 ], [ 12.42244758172259, 55.853010591786877 ], [ 12.422471467969448, 55.853282061587116 ], [ 12.422680113202166, 55.85382052217853 ], [ 12.422711964751498, 55.854182481772163 ], [ 12.422735853891638, 55.854453951445436 ], [ 12.422767706716026, 55.854815910980506 ], [ 12.422799560269052, 55.855177870482137 ], [ 12.422839378235011, 55.855630319812114 ], [ 12.422863269561097, 55.855901789384994 ], [ 12.422903089348795, 55.856354238631333 ], [ 12.422950874597046, 55.856897177657906 ], [ 12.422966803377511, 55.857078157316714 ], [ 12.422998661485021, 55.857440116609204 ], [ 12.423030520321337, 55.85780207586825 ], [ 12.423046450012802, 55.857983055485221 ], [ 12.42307830994236, 55.858345014694066 ], [ 12.423110170600776, 55.858706973869459 ], [ 12.423142031988071, 55.859068933011386 ], [ 12.423318856771875, 55.85924543249866 ], [ 12.423511616004694, 55.859602911187991 ], [ 12.423559415563933, 55.86014584958113 ], [ 12.423752181790467, 55.860503327764683 ], [ 12.423776083849926, 55.860774796862458 ], [ 12.423792018784081, 55.860955776250528 ], [ 12.424145693654998, 55.86130877269192 ], [ 12.424161630626635, 55.861489751994291 ], [ 12.424531252871489, 55.862023726458787 ], [ 12.424571101192322, 55.862476174463865 ], [ 12.424763889073317, 55.862833650682518 ], [ 12.424795770770672, 55.863195608954847 ], [ 12.425157447297572, 55.863639091549622 ], [ 12.425495215054436, 55.863811104492072 ], [ 12.425856905484666, 55.864254584817438 ], [ 12.425872852173807, 55.864435563708966 ], [ 12.426210630077428, 55.864607574538738 ], [ 12.426725278028538, 55.864956078320752 ], [ 12.426910122736313, 55.86522306129892 ], [ 12.427094970045538, 55.865490043957138 ], [ 12.4272718429227, 55.865666537003378 ], [ 12.427456694925358, 55.865933519043132 ], [ 12.427472650057442, 55.866114497582231 ], [ 12.427971371866555, 55.866282017179955 ], [ 12.427987329600327, 55.866462995611307 ], [ 12.428333114372482, 55.866725489418279 ], [ 12.428349074053788, 55.866906467768025 ], [ 12.428365033917684, 55.867087446109373 ], [ 12.42838897405589, 55.867358913605706 ], [ 12.428404934376271, 55.867539891926135 ], [ 12.428122977708737, 55.868001311939622 ], [ 12.427656147196736, 55.868195750179943 ], [ 12.427350242904387, 55.868385700883302 ], [ 12.427213245090647, 55.868661654474977 ], [ 12.42674640209308, 55.868856089403756 ], [ 12.426424536110915, 55.868865059302514 ], [ 12.425957686646145, 55.869059491313202 ], [ 12.425321924106617, 55.869167915615094 ], [ 12.424388201955857, 55.869556769764081 ], [ 12.423752426634719, 55.869665186103781 ], [ 12.422794772855598, 55.869782559704191 ], [ 12.422151022726139, 55.869800478190619 ], [ 12.421531166623641, 55.870089862635517 ], [ 12.420887410561603, 55.870107774578344 ], [ 12.419929736383015, 55.87022512610843 ], [ 12.418972056135884, 55.870342470251934 ], [ 12.417861385323224, 55.870554770842688 ], [ 12.417378560728343, 55.87056819079487 ], [ 12.416742747970334, 55.8706765713371 ], [ 12.416436770225959, 55.870866495754221 ], [ 12.415953941046412, 55.870879910167766 ], [ 12.415487013820927, 55.871074303347108 ], [ 12.415165125709231, 55.871083244037997 ], [ 12.415020081893205, 55.871268694807874 ], [ 12.414561094457696, 55.871553574957893 ], [ 12.414102100309764, 55.871838453469451 ], [ 12.41381199573288, 55.872209352506601 ], [ 12.413345041766698, 55.872403737857539 ], [ 12.413360935143766, 55.872584718871195 ], [ 12.413223823795063, 55.872860658171028 ], [ 12.413078764334237, 55.873046106809042 ], [ 12.412796587020411, 55.873507494156023 ], [ 12.412812478504968, 55.873688475240435 ], [ 12.412530293649281, 55.874149862036049 ], [ 12.412562075089308, 55.874511824258889 ], [ 12.412424951786255, 55.874787762755084 ], [ 12.41245673300717, 55.87514972497992 ], [ 12.412496460556152, 55.875602177713972 ], [ 12.412536189241667, 55.876054630395871 ], [ 12.412399060751508, 55.876330568877485 ], [ 12.412108907957, 55.876701464306002 ], [ 12.412124798147715, 55.876882445425558 ], [ 12.411987664033989, 55.877158383491995 ], [ 12.411697501411965, 55.877529278037095 ], [ 12.411560362147624, 55.877805215670655 ], [ 12.411423221008535, 55.878081153165795 ], [ 12.411286077994653, 55.878357090522513 ], [ 12.411309909088475, 55.878628562357832 ], [ 12.411172763489567, 55.878904499602655 ], [ 12.411059446098248, 55.879451908578638 ], [ 12.411075333047179, 55.879632889814594 ], [ 12.410785144105109, 55.880003782429135 ], [ 12.41080103010702, 55.880184763700449 ], [ 12.410840745907199, 55.880637216842246 ], [ 12.410719476605276, 55.881094134881494 ], [ 12.410598204662794, 55.881551052809314 ], [ 12.410637920140509, 55.882003505945605 ], [ 12.410492815842558, 55.882188951895778 ], [ 12.410532531045318, 55.882641405034548 ], [ 12.4105484174446, 55.882822386275457 ], [ 12.410564304025709, 55.883003367508024 ], [ 12.410580190788639, 55.883184348732243 ], [ 12.410297914798702, 55.883645731029084 ], [ 12.410321743726659, 55.883917202909068 ], [ 12.409854633427708, 55.884111576710474 ], [ 12.409870517549475, 55.88429255803559 ], [ 12.409556459559834, 55.884391976106528 ], [ 12.409419282733163, 55.884667911598463 ], [ 12.408944218790376, 55.884771791385162 ], [ 12.408646033388198, 55.885052188696903 ], [ 12.408339904883183, 55.885242094540303 ], [ 12.407872768704713, 55.88543646110827 ], [ 12.407405627820108, 55.885630825956291 ], [ 12.406777475730859, 55.885829649125938 ], [ 12.406310324551107, 55.88602400993318 ], [ 12.406012110635547, 55.886304401175039 ], [ 12.405537017219588, 55.886408268147896 ], [ 12.405069852803759, 55.886602624395501 ], [ 12.404594753107668, 55.886706487802734 ], [ 12.404135509853011, 55.886991331730059 ], [ 12.403821415061339, 55.887090735583179 ], [ 12.403354233731765, 55.887285085509504 ], [ 12.403032207402953, 55.887293996160629 ], [ 12.402887047695719, 55.887479433715498 ], [ 12.402749813179444, 55.887755362392099 ], [ 12.402282618466547, 55.887949708399972 ], [ 12.402298469640362, 55.888130691036075 ], [ 12.40231432099562, 55.88831167366385 ], [ 12.402821154153711, 55.888569783819747 ], [ 12.403174902382803, 55.888922838492284 ], [ 12.403359707335575, 55.889189856611807 ], [ 12.403552443840324, 55.889547365590076 ], [ 12.404059301471898, 55.889805470292373 ], [ 12.404397210293201, 55.889977538881134 ], [ 12.404421003693377, 55.890249012145979 ], [ 12.404758918014167, 55.890421079661543 ], [ 12.405257861823301, 55.890588688115159 ], [ 12.405595782774029, 55.89076075323932 ], [ 12.405780613472986, 55.891027767333277 ], [ 12.40646440696818, 55.891462384439009 ], [ 12.406802340886573, 55.891634446063954 ], [ 12.40681821528834, 55.891815427741214 ], [ 12.407156153869257, 55.891987488327068 ], [ 12.407663067341735, 55.89224557738634 ], [ 12.40783997977498, 55.892422097320008 ], [ 12.408024834130101, 55.892689107685776 ], [ 12.408346903465949, 55.892680183416402 ], [ 12.409183848087965, 55.89301983146288 ], [ 12.409521807580209, 55.893191885255447 ], [ 12.410020807237874, 55.893359473613316 ], [ 12.410672902170877, 55.89343210410388 ], [ 12.411332947669694, 55.89359522149207 ], [ 12.411816061199891, 55.893581821652916 ], [ 12.41231507545959, 55.893749400505484 ], [ 12.41263715213959, 55.893740464905008 ], [ 12.412967180769062, 55.893822018691971 ], [ 12.413450296294904, 55.893808612406062 ], [ 12.413933411411026, 55.89379520422694 ], [ 12.414738602360584, 55.893772853054571 ], [ 12.415704829997164, 55.893746024705926 ], [ 12.416026905511613, 55.893737080240186 ], [ 12.416325101059487, 55.893456665192602 ], [ 12.416961285365312, 55.893348282378398 ], [ 12.41727539513135, 55.893248844839029 ], [ 12.417911573206698, 55.893140457184025 ], [ 12.418201786512363, 55.892769548028014 ], [ 12.41849995899954, 55.892489127966044 ], [ 12.418629131448705, 55.892122693389929 ], [ 12.418935261487258, 55.891932762063981 ], [ 12.419241388538721, 55.891742830009413 ], [ 12.419378518111875, 55.891466884397452 ], [ 12.419523612439553, 55.891281428295066 ], [ 12.41999872534902, 55.891177507082901 ], [ 12.420304841290459, 55.890987572504386 ], [ 12.420610954245005, 55.890797637197331 ], [ 12.421078088120829, 55.89060322238187 ], [ 12.421400135800241, 55.89059426419113 ], [ 12.421706240267309, 55.890404326255961 ], [ 12.422165391367729, 55.890119417987293 ], [ 12.422479461498627, 55.890019967618258 ], [ 12.422785556167575, 55.889830027107358 ], [ 12.423252667385821, 55.88963560429513 ], [ 12.423558755243587, 55.889445661937089 ], [ 12.423542804348983, 55.889264683347456 ], [ 12.423864840114792, 55.889255718850649 ], [ 12.424492955906812, 55.88905680891714 ], [ 12.424807011357501, 55.888957352776323 ], [ 12.425419158153442, 55.88857745989155 ], [ 12.425741187597138, 55.888568490559479 ], [ 12.426047254839661, 55.888378542244077 ], [ 12.426683327393297, 55.888270110481578 ], [ 12.427142416647289, 55.887985184340565 ], [ 12.427617468026794, 55.887881234429067 ], [ 12.427939490965311, 55.887872259420774 ], [ 12.428253527782799, 55.887772794699039 ], [ 12.428736560453768, 55.887759329393056 ], [ 12.429066569810457, 55.887840840267238 ], [ 12.429549602915548, 55.887827371761169 ], [ 12.430064596243335, 55.888175856162427 ], [ 12.430394611816066, 55.888257363387979 ], [ 12.430732620602194, 55.888429358339302 ], [ 12.431062639679077, 55.888510863724257 ], [ 12.431408647133313, 55.888773345328602 ], [ 12.431585649630932, 55.888949830010283 ], [ 12.431931664589507, 55.889212310032711 ], [ 12.432269688490356, 55.88938430054472 ], [ 12.432599718819146, 55.889465801650061 ], [ 12.432615711981926, 55.88964677851893 ], [ 12.432953742693853, 55.889818767053939 ], [ 12.433476791898229, 55.890257724722908 ], [ 12.433814831752921, 55.890429710760614 ], [ 12.433991852894634, 55.890606191703952 ], [ 12.434176876272124, 55.890873160634996 ], [ 12.434192877619676, 55.891054137163167 ], [ 12.434216879984444, 55.891325601939698 ], [ 12.4347159578142, 55.891493089098006 ], [ 12.434731962042976, 55.891674065505583 ], [ 12.435078022917066, 55.891936535998269 ], [ 12.435432092451896, 55.892289493575447 ], [ 12.435939193084314, 55.892547463631175 ], [ 12.435963208986037, 55.892818927844488 ], [ 12.436309288553888, 55.893081394595775 ], [ 12.436325301152619, 55.893262370654043 ], [ 12.436655372831503, 55.893343860304235 ], [ 12.436671387198771, 55.893524836289068 ], [ 12.436856443547045, 55.893791800671096 ], [ 12.437194529382811, 55.893963776753601 ], [ 12.437532618205822, 55.894135751864575 ], [ 12.437556646664172, 55.89440721555377 ], [ 12.437886730619539, 55.894488701729628 ], [ 12.438377853332735, 55.894565685391491 ], [ 12.438707940282027, 55.894647169322646 ], [ 12.43903802858741, 55.894728652349386 ], [ 12.439545185071964, 55.894986606739884 ], [ 12.439875277956629, 55.89506808745675 ], [ 12.440358395369694, 55.895054575412175 ], [ 12.440688490455413, 55.895136053916772 ], [ 12.441010569064664, 55.89512704396342 ], [ 12.441823784484251, 55.895195002876157 ], [ 12.442314923351493, 55.895271970596959 ], [ 12.443120120969384, 55.89524943346585 ], [ 12.444086356595387, 55.895222381966882 ], [ 12.444891551687199, 55.895199833266375 ], [ 12.44553570693364, 55.895181790519665 ], [ 12.445857784281145, 55.895172767884198 ], [ 12.446340899957706, 55.895159232353372 ], [ 12.446662976845595, 55.895150207614392 ], [ 12.447460135445489, 55.89503715514445 ], [ 12.448096251993386, 55.894928612113965 ], [ 12.44857936349846, 55.894915067840067 ], [ 12.449054438132121, 55.894811034880128 ], [ 12.449690546210896, 55.894702483706411 ], [ 12.450334689965013, 55.894684415962196 ], [ 12.450978832982864, 55.894666344852475 ], [ 12.451453897796513, 55.894562302743601 ], [ 12.45224298544694, 55.894358733055569 ], [ 12.453048155741225, 55.894336131251293 ], [ 12.453370223536593, 55.894327089057199 ], [ 12.453684244091891, 55.894227559661473 ], [ 12.454650443579506, 55.89420042559874 ], [ 12.454972509706822, 55.894191379228452 ], [ 12.455616641408517, 55.894173283963838 ], [ 12.456421804998701, 55.894150660150487 ], [ 12.456743870112122, 55.89414160915279 ], [ 12.457065935041143, 55.894132557313739 ], [ 12.457549032088885, 55.894118977977655 ], [ 12.45803212872163, 55.894105396748557 ], [ 12.458362250796798, 55.894186827460643 ], [ 12.458700432950035, 55.894358743149716 ], [ 12.459191591863826, 55.894435643199351 ], [ 12.459521719078417, 55.894517070728583 ], [ 12.459851847648126, 55.894598497353122 ], [ 12.460181977572951, 55.894679923072886 ], [ 12.460528235113003, 55.894942319286862 ], [ 12.461019404775465, 55.895019211890364 ], [ 12.461196569695074, 55.895195651702437 ], [ 12.461526707419125, 55.895277073704918 ], [ 12.462178919768412, 55.895349429462989 ], [ 12.462525196725029, 55.895611819781216 ], [ 12.462871478393405, 55.895874209055116 ], [ 12.46336266417439, 55.895951092080551 ], [ 12.463547914593196, 55.896218013694401 ], [ 12.463878065767837, 55.896299429199296 ], [ 12.464546445174676, 55.89655274278492 ], [ 12.464731706696101, 55.89681966245255 ], [ 12.464916970827812, 55.897086581798781 ], [ 12.4652713568872, 55.897439449117527 ], [ 12.465770643113283, 55.89760680738479 ], [ 12.46610888763062, 55.897778701819099 ], [ 12.466455213021552, 55.898041080366461 ], [ 12.466954511994782, 55.898208433649437 ], [ 12.467131718673157, 55.898384864301853 ], [ 12.467478056430988, 55.898647239789312 ], [ 12.468476682906392, 55.898981935623723 ], [ 12.468661983473412, 55.899248848786797 ], [ 12.469322359555916, 55.899411650430977 ], [ 12.469660635444471, 55.899583534651448 ], [ 12.469998914320925, 55.899755417899073 ], [ 12.470490162457104, 55.899832271607153 ], [ 12.470989501497915, 55.899999607950015 ], [ 12.47164989972457, 55.900162396791877 ], [ 12.47215733975437, 55.900420212804555 ], [ 12.473139862664681, 55.900573900652439 ], [ 12.473478165358344, 55.900745773998963 ], [ 12.474146682976995, 55.900999033470193 ], [ 12.4746460523787, 55.901166354546525 ], [ 12.475145426030817, 55.901333673536321 ], [ 12.47548374413396, 55.901505541149504 ], [ 12.475661004725218, 55.901681958740667 ], [ 12.476313348406844, 55.901754237759739 ], [ 12.476651675289098, 55.901926102036974 ], [ 12.477151067156264, 55.902093412629853 ], [ 12.477972588343768, 55.902251613758615 ], [ 12.478624945440496, 55.902323880334528 ], [ 12.479792934377642, 55.902744410593691 ], [ 12.480123173877416, 55.902825781265307 ], [ 12.480614479489404, 55.902902593748216 ], [ 12.48127496582466, 55.903065329692396 ], [ 12.482080291721109, 55.903042535757557 ], [ 12.483232101476496, 55.903282065613801 ], [ 12.483876364538702, 55.903263820602824 ], [ 12.484689814259371, 55.903331492862669 ], [ 12.485181134597177, 55.903408286902106 ], [ 12.486002714341572, 55.903566433591777 ], [ 12.486646980218602, 55.903548174027151 ], [ 12.487790702203522, 55.903697177597991 ], [ 12.48844309983132, 55.903769391542077 ], [ 12.489578701056834, 55.903827895458491 ], [ 12.490553238173595, 55.903890959391013 ], [ 12.491519640095891, 55.90386353297221 ], [ 12.492324973749957, 55.903840671837408 ], [ 12.492816314418601, 55.903917435097647 ], [ 12.493621648076303, 55.903894565469841 ], [ 12.494104847711537, 55.903880841168458 ], [ 12.494918325442587, 55.903948445387556 ], [ 12.495240458580417, 55.903939292666493 ], [ 12.496045790608777, 55.903916407181967 ], [ 12.496851121470902, 55.903893516437691 ], [ 12.49749538532074, 55.903875200055261 ], [ 12.498300714082974, 55.903852299843471 ], [ 12.49862284526113, 55.903843138286042 ], [ 12.499283419244993, 55.904005776328937 ], [ 12.499774774627616, 55.904082511588776 ], [ 12.50025797342602, 55.904068763117081 ], [ 12.500580105724765, 55.904059596417333 ], [ 12.500902237836669, 55.90405042887604 ], [ 12.501546501499892, 55.904032091268782 ], [ 12.501876795238507, 55.904113402790678 ], [ 12.502529223002727, 55.90418554159578 ], [ 12.50317348778511, 55.904167195448927 ], [ 12.503834085392956, 55.904329808728669 ], [ 12.504333621170833, 55.904497006982879 ], [ 12.504824991959087, 55.90457372185513 ], [ 12.505163466887854, 55.904745505679621 ], [ 12.505493773932125, 55.904826807304616 ], [ 12.50598515102272, 55.90490351745521 ], [ 12.506331806770055, 55.905165779116864 ], [ 12.506831363791806, 55.905332966929471 ], [ 12.50718620414181, 55.905685707117811 ], [ 12.50752469914935, 55.905857484157437 ], [ 12.508515667065835, 55.906101366695133 ], [ 12.508532023710913, 55.906282328520476 ], [ 12.509047963667612, 55.906630468777536 ], [ 12.509563912918299, 55.906978606733915 ], [ 12.51024094944553, 55.907322146125885 ], [ 12.510756918638775, 55.907670278787222 ], [ 12.511095446709898, 55.907842045524255 ], [ 12.511619616670462, 55.908280654970198 ], [ 12.512127423629572, 55.908538300949452 ], [ 12.512474153636262, 55.908800544209576 ], [ 12.512829077593462, 55.909153266874767 ], [ 12.513151247703707, 55.909144066750621 ], [ 12.513345094570997, 55.909501387975283 ], [ 12.5137082245339, 55.909944588263492 ], [ 12.513893888711575, 55.910211428121819 ], [ 12.514071362954963, 55.910387787345449 ], [ 12.514434509834508, 55.910830985221104 ], [ 12.51500792874184, 55.91181246048852 ], [ 12.515201806926601, 55.912169778263461 ], [ 12.515412081438836, 55.912708055970228 ], [ 12.515775266273534, 55.913151249268019 ], [ 12.515960960787915, 55.913418085506997 ], [ 12.516179451796305, 55.91404684165618 ], [ 12.516583656776048, 55.914942432366196 ], [ 12.516769365879723, 55.915209267136923 ], [ 12.517140791942159, 55.915742935708984 ], [ 12.517487621629913, 55.916005163303822 ], [ 12.517673342281766, 55.916271996524756 ], [ 12.517850862333871, 55.916448349567339 ], [ 12.518342409903626, 55.91652500799691 ], [ 12.518672844370707, 55.916606272435899 ], [ 12.519011486168054, 55.916778015708161 ], [ 12.519503040041476, 55.916854669413013 ], [ 12.519994595781812, 55.91693132112789 ], [ 12.520647269710764, 55.917003360460178 ], [ 12.52113061839394, 55.91698952801957 ], [ 12.521775082646556, 55.916971081818751 ], [ 12.522105527757205, 55.917052336890272 ], [ 12.52275820718515, 55.917124364945835 ], [ 12.524361150630993, 55.916987742555364 ], [ 12.525158507624667, 55.916874184014141 ], [ 12.525641852355939, 55.916860333893496 ], [ 12.526278088400028, 55.916751385088261 ], [ 12.52660031686119, 55.916742148969583 ], [ 12.52691432074738, 55.916642433038284 ], [ 12.527558775232601, 55.916623956653936 ], [ 12.528356114575598, 55.916510377605711 ], [ 12.528661883555726, 55.916320178468943 ], [ 12.528984107613379, 55.916310936161139 ], [ 12.529612094105088, 55.916111491590648 ], [ 12.529934316102089, 55.916102246819769 ], [ 12.530256537910551, 55.916093001207017 ], [ 12.53072340416721, 55.915898173990513 ], [ 12.531198499757549, 55.915793823626828 ], [ 12.531343140377086, 55.91560824218228 ], [ 12.53181823068406, 55.915503889489969 ], [ 12.532132210719872, 55.91540416053337 ], [ 12.532446189119156, 55.915304430795373 ], [ 12.532760165881909, 55.915204700276 ], [ 12.533074141008136, 55.915104968975257 ], [ 12.533396353455034, 55.915095715256939 ], [ 12.534252219894599, 55.914738509495528 ], [ 12.53510807046688, 55.914381297970529 ], [ 12.535683666709371, 55.914198445956835 ], [ 12.536274373938731, 55.914181467828833 ], [ 12.536539491987027, 55.913841224778579 ], [ 12.53680460548699, 55.913500981202802 ], [ 12.537615040037645, 55.912646123635717 ], [ 12.539190422334972, 55.910438765375702 ], [ 12.539970483142358, 55.90925214133442 ], [ 12.540856426862677, 55.909226643715158 ], [ 12.54144705521535, 55.909209641766338 ], [ 12.542052821348049, 55.909358512595702 ], [ 12.542878197722276, 55.908669498128795 ], [ 12.544294152668401, 55.907963463093559 ], [ 12.545399606483645, 55.907100048669093 ], [ 12.546240030870928, 55.906576887890367 ], [ 12.546769987603124, 55.905896361307072 ], [ 12.547360561567499, 55.905879331662803 ], [ 12.547920811850709, 55.905530549896696 ], [ 12.548496215726152, 55.905347640254988 ], [ 12.548761168444873, 55.905007372682441 ], [ 12.549321393620902, 55.904658584829676 ], [ 12.550207223669339, 55.904633021320706 ], [ 12.550767430315965, 55.904284227108164 ], [ 12.55380283352196, 55.901868194374323 ], [ 12.557163491741035, 55.89977529931523 ], [ 12.560849432987718, 55.898005515117923 ], [ 12.563074215393806, 55.896444266568601 ], [ 12.564769333425888, 55.895563580915024 ], [ 12.565624479043789, 55.895206165545886 ], [ 12.566184411810468, 55.894857304335666 ], [ 12.567584199822488, 55.893985140672399 ], [ 12.56843928456483, 55.893627706464414 ], [ 12.56957429066876, 55.893095828209489 ], [ 12.57039883739678, 55.89240663872387 ], [ 12.572933341567678, 55.891002521275112 ], [ 12.57437863599896, 55.890627895124489 ], [ 12.575482932299957, 55.889764223893138 ], [ 12.576897603819845, 55.889057828927776 ], [ 12.578312223740792, 55.888351418310037 ], [ 12.578856660574134, 55.887836632314233 ], [ 12.580006641948874, 55.887470531038872 ], [ 12.580566334194321, 55.887121607212165 ], [ 12.581685688595654, 55.886423752271696 ], [ 12.582245350752025, 55.886074821158118 ], [ 12.583659764488566, 55.885368351500738 ], [ 12.584733093639896, 55.884172863934751 ], [ 12.585587803372674, 55.883815315039122 ], [ 12.586396558768486, 55.882960155477996 ], [ 12.587546323703561, 55.882593986344368 ], [ 12.5886194587959, 55.881398467045656 ], [ 12.590048913756899, 55.880857795187396 ], [ 12.592271547491631, 55.879296043879549 ], [ 12.59339046764825, 55.878598087520864 ], [ 12.59393457068599, 55.878083238625898 ], [ 12.595084119237473, 55.877717001666355 ], [ 12.595923241212297, 55.87719351696947 ], [ 12.596172241884599, 55.876687287452476 ], [ 12.597533781542452, 55.876481141770142 ], [ 12.598587459960937, 55.876145395043324 ], [ 12.600182029529774, 55.875793802293749 ], [ 12.601179304505443, 55.874849858676619 ], [ 12.602745604654192, 55.874194146401997 ], [ 12.605393601565607, 55.873506697807628 ], [ 12.606390691839046, 55.87256271413127 ], [ 12.609038511009128, 55.871875189254588 ], [ 12.611145395845249, 55.871203495471541 ], [ 12.614846407461417, 55.870179988224315 ], [ 12.619700086825441, 55.868919156811351 ], [ 12.621631079823784, 55.868303275416494 ], [ 12.623562010753437, 55.867687364471458 ], [ 12.625388890040147, 55.865956465208782 ], [ 12.627371664251589, 55.865897975731357 ], [ 12.631180965516387, 55.864108473277994 ], [ 12.633111533213247, 55.863492416888228 ], [ 12.633946519616339, 55.861790691471967 ], [ 12.636816035813098, 55.860587797186909 ], [ 12.638694166384555, 55.859414183812071 ], [ 12.640519989495315, 55.857683072278505 ], [ 12.643336766842907, 55.855922561562359 ], [ 12.644118916488312, 55.85366330435901 ], [ 12.646048759082172, 55.853047053811686 ], [ 12.647873963434975, 55.8513158401406 ], [ 12.649855942716007, 55.851256998553978 ], [ 12.650689951965989, 55.849555170282628 ], [ 12.652567136395124, 55.848381356244388 ], [ 12.654496580983714, 55.847764978042704 ], [ 12.656425963542649, 55.847148570338518 ], [ 12.657259603132257, 55.845446701711197 ], [ 12.659188826653859, 55.84483025261914 ], [ 12.660074744248133, 55.843685827110271 ], [ 12.660855701977948, 55.84142647649179 ], [ 12.663827870387134, 55.841337898807815 ], [ 12.663722884146965, 55.84022298289576 ], [ 12.665651745463016, 55.839606436884893 ], [ 12.665546713852693, 55.838491522931875 ], [ 12.666432306238192, 55.837347055192552 ], [ 12.669193892894356, 55.835028527317192 ], [ 12.67101724227731, 55.833296991676953 ], [ 12.671902560522147, 55.832152487576337 ], [ 12.675706517867411, 55.830361671172724 ], [ 12.676538981030449, 55.828659684619581 ], [ 12.678467065562183, 55.828042947215124 ], [ 12.678361712958486, 55.826928047168693 ], [ 12.680131588753438, 55.824638935357854 ], [ 12.682059417574237, 55.824022144787627 ], [ 12.681953978125399, 55.822907248507349 ], [ 12.682786021152131, 55.821205223945718 ], [ 12.68367073029434, 55.820060641826053 ], [ 12.684555388616618, 55.818916053883299 ], [ 12.685387239501683, 55.817214013569242 ], [ 12.686271785819676, 55.816069414433152 ], [ 12.689136323660684, 55.814865360587788 ], [ 12.689967894213199, 55.813163292327047 ], [ 12.691789325204615, 55.811431470485168 ], [ 12.692567868960172, 55.809171943352361 ], [ 12.69735847042757, 55.807350734174364 ], [ 12.700999985157749, 55.803886860248213 ], [ 12.703651224771372, 55.80045273398089 ], [ 12.707450648452221, 55.798660990755252 ], [ 12.709164531748428, 55.79581405971102 ], [ 12.71098432012827, 55.794081972542216 ], [ 12.711761443268015, 55.79182233904023 ], [ 12.714623418311058, 55.790617722915492 ], [ 12.716283307095692, 55.787213271237292 ], [ 12.718049230772978, 55.784923657765681 ], [ 12.720963705689067, 55.784276331048069 ], [ 12.721793283335533, 55.782574069208856 ], [ 12.724388068280438, 55.778582105122553 ], [ 12.726206400129593, 55.776849809263368 ], [ 12.727088871648471, 55.775704939911257 ], [ 12.728906953297198, 55.77397260697456 ], [ 12.730671562782112, 55.771682826866311 ], [ 12.732542638801478, 55.770507865976469 ], [ 12.733318097657863, 55.768248113336455 ], [ 12.735964177436834, 55.7648133477852 ], [ 12.739705250724793, 55.76246324925809 ], [ 12.749669582403369, 55.752655450260725 ], [ 12.749562496434256, 55.751540626459438 ], [ 12.755117214659018, 55.747457446039725 ], [ 12.757867317481935, 55.745137063302948 ], [ 12.758694518895078, 55.743434578203633 ], [ 12.76040238723176, 55.740586999329444 ], [ 12.761283072790635, 55.739441904723734 ], [ 12.764032259966568, 55.737121394646863 ], [ 12.764859036640868, 55.735418872467861 ], [ 12.766566127397503, 55.732571216239506 ], [ 12.768434277820784, 55.731395744402867 ], [ 12.771021084490066, 55.727402884836778 ], [ 12.772727398258338, 55.724555151338571 ], [ 12.774379636982093, 55.72114999778433 ], [ 12.777234535156897, 55.719944012780047 ], [ 12.779047875697039, 55.718210993712866 ], [ 12.779873630588364, 55.716508381293053 ], [ 12.780753228419655, 55.715363159317761 ], [ 12.782620143257812, 55.714187486743974 ], [ 12.783445664366774, 55.712484852841257 ], [ 12.785204427695497, 55.710194356334028 ], [ 12.785096500129976, 55.709079570341416 ], [ 12.786909004729027, 55.707346444859098 ], [ 12.789654473658322, 55.705025405283735 ], [ 12.789546440302249, 55.703910624083001 ], [ 12.791358515481766, 55.702177437964188 ], [ 12.792183423513366, 55.70047475173363 ], [ 12.793062317416329, 55.699329449493554 ], [ 12.79492811014952, 55.698153603482403 ], [ 12.795752784755118, 55.696450895818558 ], [ 12.796631487905426, 55.695305570211794 ], [ 12.797401927882852, 55.693045465837983 ], [ 12.798280510233434, 55.691900129710469 ], [ 12.798996676120305, 55.689082630431663 ], [ 12.800861811717617, 55.687906702201161 ], [ 12.80168603048387, 55.686203959234042 ], [ 12.801523584063029, 55.684531805460566 ], [ 12.802401864568763, 55.683386443048462 ], [ 12.803280094899717, 55.682241074918714 ], [ 12.80410409955044, 55.68053831770019 ], [ 12.804928035608778, 55.678835555607435 ], [ 12.806629902287067, 55.675987399041389 ], [ 12.807453640891278, 55.674284621954122 ], [ 12.808331529653138, 55.673139221392411 ], [ 12.80915513942006, 55.671436434187733 ], [ 12.808938242986736, 55.669206909601854 ], [ 12.810747909912456, 55.667473464914565 ], [ 12.810639428698927, 55.666358704134986 ], [ 12.812503155143457, 55.665182616116539 ], [ 12.813326430608633, 55.663479804203476 ], [ 12.814203917834565, 55.662334366001708 ], [ 12.815027064592709, 55.660631543985197 ], [ 12.814918489542835, 55.659516787508231 ], [ 12.814647085226934, 55.656729894808279 ], [ 12.816510243618891, 55.655553752799143 ], [ 12.816293058102803, 55.653324241497245 ], [ 12.816184476765628, 55.652209485329308 ], [ 12.818047379162262, 55.651033323060787 ], [ 12.818761504286719, 55.648215725096378 ], [ 12.81958418289061, 55.646512876584467 ], [ 12.819475535740962, 55.645398123448146 ], [ 12.820298129525542, 55.643695270840432 ], [ 12.820189473550844, 55.642580518117427 ], [ 12.819972184450043, 55.640351011636668 ], [ 12.820794660564333, 55.638648156450856 ], [ 12.820686011002286, 55.637533403451293 ], [ 12.821562734392764, 55.636387920336098 ], [ 12.821399743972481, 55.634715791586039 ], [ 12.821236770686417, 55.633043662059741 ], [ 12.821019499620645, 55.630814154817266 ], [ 12.820856566304858, 55.629142023479886 ], [ 12.820747953608942, 55.6280272688238 ], [ 12.82063934852386, 55.626912513822781 ], [ 12.820422161183286, 55.624683002786 ], [ 12.820259290650878, 55.623010868603075 ], [ 12.820096437235472, 55.621338733644158 ], [ 12.81987932597046, 55.619109219158574 ], [ 12.818731620360268, 55.617467790483317 ], [ 12.818568865710969, 55.615795651026403 ], [ 12.817367089446508, 55.613596826282901 ], [ 12.817258638859853, 55.612482064250734 ], [ 12.816165452924981, 55.611397987170811 ], [ 12.815894448198597, 55.608611076537784 ], [ 12.814693058862932, 55.606412218155192 ], [ 12.813545963358397, 55.60477072967182 ], [ 12.813437656916319, 55.60365596106498 ], [ 12.811306184929048, 55.602045101217968 ], [ 12.81114383992821, 55.600372943072472 ], [ 12.809888897864976, 55.597616641041817 ], [ 12.808742274837416, 55.595975099061512 ], [ 12.808526013103586, 55.593745545827709 ], [ 12.807433609869259, 55.592661377131037 ], [ 12.806233219046014, 55.590462417301836 ], [ 12.806071159998845, 55.588790246117206 ], [ 12.80487097298459, 55.58659126901253 ], [ 12.80252497065929, 55.582750665209652 ], [ 12.801325180396624, 55.580551646079961 ], [ 12.800179441973015, 55.578910007904319 ], [ 12.800017710150813, 55.577237821798605 ], [ 12.798872128692318, 55.575596168492204 ], [ 12.797780515223819, 55.574511899965778 ], [ 12.797672777798139, 55.573397105408787 ], [ 12.797457325566585, 55.571167515265444 ], [ 12.796365879095008, 55.570083231153674 ], [ 12.794129364105594, 55.567357230499383 ], [ 12.793914161185619, 55.56512762899245 ], [ 12.792822986247298, 55.564043308597 ], [ 12.792715431338204, 55.562928505722361 ], [ 12.791624352756951, 55.561844172968641 ], [ 12.791409336012283, 55.559614562978481 ], [ 12.791248093198151, 55.557942354586473 ], [ 12.79103312910051, 55.55571274219799 ], [ 12.789942305431964, 55.554628389862629 ], [ 12.788851542828345, 55.553544026780905 ], [ 12.788744142516185, 55.552429216862343 ], [ 12.787653476194313, 55.551344841430925 ], [ 12.785579621352291, 55.550290873069237 ], [ 12.785418682179104, 55.548618650844951 ], [ 12.784274591557509, 55.546976834004205 ], [ 12.783184204603277, 55.545892414003056 ], [ 12.783076995357654, 55.544777595382733 ], [ 12.780950043392712, 55.543166130917541 ], [ 12.77985985708553, 55.542081677904129 ], [ 12.777733185072583, 55.540470152944415 ], [ 12.775713662754953, 55.539973417480489 ], [ 12.774623711082638, 55.538888914002726 ], [ 12.772443990691006, 55.536719874858917 ], [ 12.770371320064045, 55.535665629764921 ], [ 12.768298760170588, 55.534611347814213 ], [ 12.766226311004367, 55.533557029010879 ], [ 12.763117844854902, 55.531975481716032 ], [ 12.761045672479373, 55.53092107079889 ], [ 12.758973610809159, 55.529866623043318 ], [ 12.755918911759654, 55.528842310662881 ], [ 12.753900251801195, 55.528345201900642 ], [ 12.748774196534354, 55.526266131427469 ], [ 12.743648677963177, 55.524186837856846 ], [ 12.739665128239107, 55.523749608639498 ], [ 12.737541094435331, 55.522137343662699 ], [ 12.734540407206669, 55.521669921204953 ], [ 12.732522373228624, 55.521172450140988 ], [ 12.730504389035495, 55.520674945027515 ], [ 12.727503889864172, 55.520207347106798 ], [ 12.725538754801148, 55.520267205978534 ], [ 12.72346819070648, 55.519212133929479 ], [ 12.718555440688343, 55.519361558493557 ], [ 12.716537716545902, 55.518863819049493 ], [ 12.713590074911449, 55.518953330277974 ], [ 12.711624971300228, 55.519012965081885 ], [ 12.709659860342883, 55.519072568406784 ], [ 12.706712180141295, 55.519161914370436 ], [ 12.704747050835456, 55.519221438996681 ], [ 12.70278191419694, 55.519280932143033 ], [ 12.6998341954988, 55.519370112837173 ], [ 12.697869040545401, 55.519429527282639 ], [ 12.69590387827277, 55.519488910247304 ], [ 12.691973531785182, 55.519607581733268 ], [ 12.689025752735086, 55.519696502708754 ], [ 12.68607795725562, 55.519785352849901 ], [ 12.683182286315125, 55.520431607278852 ], [ 12.679355966305986, 55.521664826846262 ], [ 12.677390651684378, 55.521723914404916 ], [ 12.674442666103301, 55.521812486707709 ], [ 12.67051199320453, 55.521930472911066 ], [ 12.66368511541312, 55.522694132813825 ], [ 12.661719714985697, 55.522752969701855 ], [ 12.657788892386113, 55.522870549013476 ], [ 12.654892503401001, 55.52351614334323 ], [ 12.651944309643746, 55.523604176144296 ], [ 12.648996099617518, 55.52369213809294 ], [ 12.645116738025399, 55.524366808972218 ], [ 12.641185681811404, 55.524483857817074 ], [ 12.638237370723383, 55.524571561784363 ], [ 12.635340517220662, 55.525216699369381 ], [ 12.631409333601781, 55.525333435710536 ], [ 12.629443731003974, 55.525391756640417 ], [ 12.627478121219056, 55.525450046076173 ], [ 12.624581016408488, 55.526094932219124 ], [ 12.622717957667472, 55.527268168373475 ], [ 12.620752239699833, 55.527326351196201 ], [ 12.617854881113976, 55.527971081387406 ], [ 12.615889117537648, 55.528029186671219 ], [ 12.613974525020934, 55.528644777797034 ], [ 12.610042906694618, 55.52876083327731 ], [ 12.607196342143162, 55.529962835051748 ], [ 12.604247510472193, 55.530049726702174 ], [ 12.602332631191135, 55.530665139395481 ], [ 12.600468684462195, 55.531838048242044 ], [ 12.597570644224229, 55.532482306955082 ], [ 12.594672506633163, 55.533126498293825 ], [ 12.590791217976403, 55.533799471590342 ], [ 12.588875939417534, 55.534414678828149 ], [ 12.586079104006302, 55.536173735576988 ], [ 12.584163634698239, 55.536788871480617 ], [ 12.582248104645949, 55.537403978178659 ], [ 12.577433672897691, 55.538662847775072 ], [ 12.575467288758198, 55.538720311790136 ], [ 12.573652783063606, 55.540450367293914 ], [ 12.570753648705104, 55.541094004932148 ], [ 12.568837693444076, 55.54170890713236 ], [ 12.566921677439078, 55.542323780110223 ], [ 12.562207085517619, 55.544697155944029 ], [ 12.559307442495731, 55.545340528934368 ], [ 12.555525076726289, 55.547127506880862 ], [ 12.553558223196696, 55.547184625042043 ], [ 12.550607929690587, 55.547270243171333 ], [ 12.547808457184859, 55.549028457992293 ], [ 12.545891747022695, 55.549643010486527 ], [ 12.543974976114816, 55.550257533732641 ], [ 12.542058144461269, 55.550872027728552 ], [ 12.540141252062092, 55.551486492472179 ], [ 12.536357411599804, 55.553272896502563 ], [ 12.534390210391198, 55.553329711168367 ], [ 12.532423002170916, 55.553386494298621 ], [ 12.530455786942811, 55.553443245893071 ], [ 12.528538582060746, 55.554057532888201 ], [ 12.526671309541078, 55.555229358567978 ], [ 12.523770280947529, 55.555871907139469 ], [ 12.521952710169463, 55.557601233449482 ], [ 12.520085073404124, 55.558772963039111 ], [ 12.517183671705233, 55.559415360207829 ], [ 12.517283410094201, 55.560530506472745 ], [ 12.513497648872631, 55.562316227477027 ], [ 12.510695439014906, 55.564073626688227 ], [ 12.508926683681079, 55.566360347363855 ], [ 12.507008507030458, 55.566974309107863 ], [ 12.507107985332611, 55.568089466152863 ], [ 12.5042056776254, 55.568731567055643 ], [ 12.492461365430419, 55.603711571352825 ] ] ] } }
]
}
