{
"type": "FeatureCollection",
"name": "AlarmcentralHovedstadenLinje",
"crs": { "type": "name", "properties": { "name": "urn:ogc:def:crs:EPSG::25832" } },
"features": [
{ "type": "Feature", "properties": { "fid": 1 }, "geometry": { "type": "MultiLineString", "coordinates": [ [ [ 712387.356073302216828, 6166303.202994748950005 ], [ 711563.876604668330401, 6166606.746002282947302 ], [ 711128.123498526285402, 6166778.683498252183199 ], [ 710805.603598664747551, 6166920.196485167369246 ], [ 710504.819186346489005, 6167065.011963868513703 ], [ 710225.770261571742594, 6167213.129934353753924 ], [ 709973.456005411688238, 6167333.701903089880943 ], [ 709747.876417866325937, 6167426.727870075032115 ], [ 709549.031498935772106, 6167492.207835312001407 ], [ 709376.921248620026745, 6167530.141798799857497 ], [ 709240.176430108840577, 6167564.137071076780558 ], [ 709138.797043402330019, 6167594.193652141839266 ], [ 709072.783088500495069, 6167620.311541995964944 ], [ 709042.134565403219312, 6167642.490740639157593 ], [ 708959.980876363581046, 6167667.913202092051506 ], [ 708826.322021381580271, 6167696.578926356509328 ], [ 708641.15800045710057, 6167728.487913430668414 ], [ 708404.488813590141945, 6167763.640163315460086 ], [ 708126.329055858775973, 6167846.950169209390879 ], [ 707806.678727263002656, 6167978.417931114323437 ], [ 707445.537827802705579, 6168158.043449029326439 ], [ 707042.906357478001155, 6168385.826722957193851 ], [ 706670.89756864332594, 6168525.838594141416252 ], [ 706329.511461298563518, 6168578.079062584787607 ], [ 706018.748035443713889, 6168542.548128286376595 ], [ 705738.607291078427806, 6168419.245791248045862 ], [ 705516.75189044768922, 6168328.244754093699157 ], [ 705353.181833551265299, 6168269.545016823336482 ], [ 705247.897120388923213, 6168243.146579437889159 ], [ 705200.897750960895792, 6168249.049441936425865 ], [ 705117.328368390910327, 6168281.602114226669073 ], [ 704997.18897267873399, 6168340.804596309550107 ], [ 704840.479563824832439, 6168426.65688818320632 ], [ 704647.200141828972846, 6168539.158989848569036 ], [ 704490.879841723130085, 6168622.244056210853159 ], [ 704371.51866350742057, 6168675.912087269127369 ], [ 704289.116607181727886, 6168700.163083024322987 ], [ 704243.673672745935619, 6168694.997043474577367 ], [ 704203.473357773036696, 6168680.045332854613662 ], [ 704168.515662263031118, 6168655.307951166294515 ], [ 704138.800586215918884, 6168620.784898405894637 ], [ 704114.328129631467164, 6168576.476174576207995 ], [ 704084.416429482866079, 6168537.577718128450215 ], [ 704049.065485769882798, 6168504.089529059827328 ], [ 704008.275298492633738, 6168476.011607373133302 ], [ 703962.045867651235312, 6168453.343953068368137 ], [ 703897.789111298043281, 6168435.13035209197551 ], [ 703815.505029433174059, 6168421.370804445818067 ], [ 703715.193622056627646, 6168412.065310128033161 ], [ 703596.854889168404043, 6168407.213869140483439 ], [ 703493.436820989008993, 6168361.710912610404193 ], [ 703404.939417518442497, 6168275.556440537795424 ], [ 703331.362678756588139, 6168148.750452923588455 ], [ 703272.70660470367875, 6167981.292949766851962 ], [ 703221.286297583952546, 6167847.861764797009528 ], [ 703177.101757397525944, 6167748.456898014992476 ], [ 703140.152984144398943, 6167683.078349419869483 ], [ 703110.439977824571542, 6167651.726119010709226 ], [ 703084.508363434695639, 6167603.366938691586256 ], [ 703062.358140974771231, 6167538.00080846156925 ], [ 703043.989310444798321, 6167455.627728318795562 ], [ 703029.401871844776906, 6167356.247698265127838 ], [ 702991.1615887042135, 6167273.905664033256471 ], [ 702929.268461023108102, 6167208.601625623181462 ], [ 702843.722488801693544, 6167160.335583036765456 ], [ 702734.523672039620578, 6167129.10753627307713 ], [ 702565.99405009765178, 6167103.494659900665283 ], [ 702338.133622975554317, 6167083.496953919529915 ], [ 702050.942390673328191, 6167069.114418329671025 ], [ 701704.420353191439062, 6167060.34705313295126 ], [ 701396.449057957390323, 6167069.724987907335162 ], [ 701127.028504971181974, 6167097.248222654685378 ], [ 700896.158694233279675, 6167142.916757375001907 ], [ 700703.839625743683428, 6167206.73059206828475 ], [ 700528.231536149512976, 6167277.585639321245253 ], [ 700369.334425451001152, 6167355.481899132952094 ], [ 700227.148293648147956, 6167440.419371503405273 ], [ 700101.673140741186216, 6167532.398056433536112 ], [ 700008.732032577856444, 6167712.865865924395621 ], [ 699948.324969158275053, 6167981.822799976915121 ], [ 699920.451950482558459, 6168339.268858590163291 ], [ 699925.112976550473832, 6168785.204041764140129 ], [ 699909.674879995756783, 6169149.140765452757478 ], [ 699874.137660818290897, 6169431.079029655084014 ], [ 699818.501319018076174, 6169631.018834371119738 ], [ 699742.765854595112614, 6169748.960179601795971 ], [ 699662.143763819243759, 6169907.61099274083972 ], [ 699576.635046690818854, 6170106.971273790113628 ], [ 699486.239703209372237, 6170347.041022748686373 ], [ 699390.957733375020325, 6170627.820239616557956 ], [ 699317.386593887349591, 6170834.416477488353848 ], [ 699265.526284746360034, 6170966.829736365936697 ], [ 699235.376805951818824, 6171025.060016248375177 ], [ 699226.938157503725961, 6171009.107317138463259 ], [ 699201.310049471794628, 6171010.450723141431808 ], [ 699158.492481855791993, 6171029.090234259143472 ], [ 699098.485454655834474, 6171065.025850493460894 ], [ 699021.288967871922068, 6171118.257571844384074 ], [ 698950.241567160468549, 6171197.221299634315073 ], [ 698885.343252521241084, 6171301.917033864185214 ], [ 698826.59402395458892, 6171432.344774533994496 ], [ 698773.993881460046396, 6171588.504521644674242 ], [ 698730.651977423462085, 6171742.20100911334157 ], [ 698696.568311844719574, 6171893.434236941859126 ], [ 698671.742884723702446, 6172042.204205127432942 ], [ 698656.175696060294285, 6172188.510913668200374 ], [ 698654.560470638563856, 6172388.817457737401128 ], [ 698666.897208458394744, 6172643.12383733317256 ], [ 698693.185909519670531, 6172951.430052453652024 ], [ 698733.426573822507635, 6173313.736103100702167 ], [ 698786.850110568106174, 6173610.596270978450775 ], [ 698853.456519756698981, 6173842.010556085035205 ], [ 698933.245801387936808, 6174007.978958424180746 ], [ 699026.217955461936072, 6174108.501477994024754 ], [ 699158.454907731502317, 6174224.544883213937283 ], [ 699329.956658196635544, 6174356.109174083918333 ], [ 699540.723206856986508, 6174503.194350603036582 ], [ 699790.754553712788038, 6174665.800412772223353 ], [ 699979.886242031818256, 6174811.120111834257841 ], [ 700108.118271813960746, 6174939.1534477872774 ], [ 700175.450643059215508, 6175049.900420632213354 ], [ 700181.883355767582543, 6175143.361030369997025 ], [ 700197.70021243346855, 6175224.065910240635276 ], [ 700222.901213056989945, 6175292.015060245990753 ], [ 700257.486357637913898, 6175347.208480386063457 ], [ 700301.455646176473238, 6175389.646170660853386 ], [ 700358.253105038893409, 6175424.487961437553167 ], [ 700427.878734225174412, 6175451.733852716162801 ], [ 700510.332533735549077, 6175471.383844496682286 ], [ 700605.614503569668159, 6175483.437936780042946 ], [ 700685.421121756313369, 6175519.956206738017499 ], [ 700749.752388295368291, 6175580.9386543687433 ], [ 700798.608303186716512, 6175666.38527967594564 ], [ 700831.988866430474445, 6175776.296082658693194 ], [ 700872.905307078151964, 6175866.325084392912686 ], [ 700921.357625129632652, 6175936.472284879535437 ], [ 700977.345820585032925, 6175986.737684119492769 ], [ 701040.869893444352783, 6176017.121282110922039 ], [ 701126.815323050832376, 6176040.194602984003723 ], [ 701235.182109404588118, 6176055.957646737806499 ], [ 701365.970252505503595, 6176064.410413372330368 ], [ 701519.179752353695221, 6176065.552902889437973 ], [ 701690.95263710594736, 6176079.442843360826373 ], [ 701881.288906762143597, 6176106.080234788358212 ], [ 702090.188561322516762, 6176145.465077172033489 ], [ 702317.651600787066855, 6176197.597370511852205 ], [ 702517.361665763892233, 6176249.493714930489659 ], [ 702689.318756253225729, 6176301.154110425151885 ], [ 702833.522872255067341, 6176352.578556999564171 ], [ 702949.974013769300655, 6176403.767054652795196 ], [ 703066.220252272672951, 6176466.299728094600141 ], [ 703182.261587765067816, 6176540.176577326841652 ], [ 703298.098020246485248, 6176625.39760234951973 ], [ 703413.729549716808833, 6176721.962803162634373 ], [ 703524.598636477370746, 6176845.041211759671569 ], [ 703630.705280528170988, 6176994.632828141562641 ], [ 703732.049481869209558, 6177170.737652307376266 ], [ 703828.631240500486456, 6177373.355684258975089 ], [ 703934.390170350903645, 6177547.407338861376047 ], [ 704049.32627142011188, 6177692.892616111785173 ], [ 704173.439543708809651, 6177809.81151601485908 ], [ 704306.729987216647714, 6177898.164038568735123 ], [ 704420.918916700640693, 6177968.834880083799362 ], [ 704516.006332160788588, 6178021.824040560051799 ], [ 704591.992233597207814, 6178057.131519997492433 ], [ 704648.876621009781957, 6178074.757318397983909 ], [ 704773.296212951187044, 6178085.675130345858634 ], [ 704965.251009421655908, 6178089.884955843910575 ], [ 705224.741010420722887, 6178087.386794892139733 ], [ 705551.766215948853642, 6178078.180647488683462 ], [ 705871.21414952527266, 6178046.38549542054534 ], [ 706183.084811150096357, 6177992.001338687725365 ], [ 706487.378200823441148, 6177915.028177289292216 ], [ 706784.094318545074202, 6177815.466011226177216 ], [ 707037.362719028955325, 6177735.723554588854313 ], [ 707247.183402275084518, 6177675.800807377323508 ], [ 707413.556368283345364, 6177635.697769591584802 ], [ 707536.481617053621449, 6177615.414441232569516 ], [ 707660.806001535383984, 6177579.70957413688302 ], [ 707786.529521728632972, 6177528.583168305456638 ], [ 707913.65217763313558, 6177462.035223739221692 ], [ 708042.173969249008223, 6177380.065740436315536 ], [ 708162.996374997659586, 6177314.12629571929574 ], [ 708276.119394879089668, 6177264.216889590024948 ], [ 708381.543028893182054, 6177230.337522046640515 ], [ 708479.267277040053159, 6177212.488193091005087 ], [ 708586.742010891437531, 6177223.633675051853061 ], [ 708703.967230447335169, 6177263.773967929184437 ], [ 708830.942935707513243, 6177332.90907172486186 ], [ 708967.669126672204584, 6177431.038986440747976 ], [ 709106.640971848159097, 6177511.650728579610586 ], [ 709247.858471235376783, 6177574.74429814144969 ], [ 709391.321624833857641, 6177620.319695129990578 ], [ 709537.030432643601671, 6177648.376919543370605 ], [ 709676.933655142202042, 6177697.632291819900274 ], [ 709811.031292329658754, 6177768.085811959579587 ], [ 709939.323344205971807, 6177859.737479963339865 ], [ 710061.809810770908371, 6177972.587295830249786 ], [ 710168.81471650628373, 6178087.738648547790945 ], [ 710260.338061411865056, 6178205.19153811596334 ], [ 710336.379845487652346, 6178324.945964533835649 ], [ 710396.940068733645603, 6178447.001927802339196 ], [ 710442.055986242601648, 6178553.824697528034449 ], [ 710471.727598014986143, 6178645.414273710921407 ], [ 710485.95490405021701, 6178721.770656348206103 ], [ 710484.737904348643497, 6178782.893845442682505 ], [ 710468.281501921126619, 6178855.007286944426596 ], [ 710436.585696767666377, 6178938.110980852507055 ], [ 710389.650488888379186, 6179032.204927168786526 ], [ 710327.475878283148631, 6179137.289125893265009 ], [ 710259.406684089219198, 6179222.311457086354494 ], [ 710185.442906306823716, 6179287.271920749917626 ], [ 710105.584544935612939, 6179332.170516883954406 ], [ 710019.831599975819699, 6179357.007245488464832 ], [ 709928.622853632667102, 6179391.153607864864171 ], [ 709831.958305906155147, 6179434.609604011289775 ], [ 709729.837956796283834, 6179487.375233929604292 ], [ 709622.261806302936748, 6179549.45049761980772 ], [ 709526.886698736343533, 6179606.993058339692652 ], [ 709443.712634096504189, 6179660.002916090190411 ], [ 709372.739612383302301, 6179708.480070871300995 ], [ 709313.967633597087115, 6179752.424522681161761 ], [ 709266.293533041840419, 6179797.879875481128693 ], [ 709229.717310717562214, 6179844.846129272133112 ], [ 709204.238966624718159, 6179893.323284052312374 ], [ 709189.858500763308257, 6179943.311339821666479 ], [ 709180.704096545348875, 6180020.156178122386336 ], [ 709176.77575397118926, 6180123.857798953540623 ], [ 709178.073473040712997, 6180254.416202314198017 ], [ 709184.597253753920086, 6180411.831388206221163 ], [ 709204.408684270223603, 6180572.624369188211858 ], [ 709237.507764589739963, 6180736.79514525923878 ], [ 709283.894494712352753, 6180904.343716422095895 ], [ 709343.56887463806197, 6181075.270082673989236 ], [ 709409.6387121793814, 6181227.065958719700575 ], [ 709482.104007336078212, 6181359.731344558298588 ], [ 709560.964760108385235, 6181473.266240188851953 ], [ 709646.220970496302471, 6181567.670645613223314 ], [ 709709.604301893617958, 6181661.015350617468357 ], [ 709751.114754300098866, 6181753.300355199724436 ], [ 709770.752327716210857, 6181844.525659361854196 ], [ 709768.51702214195393, 6181934.691263101994991 ], [ 709742.926912770257331, 6182012.960073842667043 ], [ 709693.981999601470307, 6182079.332091582007706 ], [ 709621.682282635360025, 6182133.80731632001698 ], [ 709526.027761872042902, 6182176.385748056694865 ], [ 709436.580353532335721, 6182227.077511137351394 ], [ 709353.340057616238482, 6182285.882605561986566 ], [ 709276.306874123867601, 6182352.801031330600381 ], [ 709205.480803055106662, 6182427.832788442261517 ], [ 709126.218523170449771, 6182500.919001813977957 ], [ 709038.520034469896927, 6182572.0596714457497 ], [ 708942.385336953448132, 6182641.254797335714102 ], [ 708837.814430621336214, 6182708.50437948666513 ], [ 708703.520169332390651, 6182773.837394079193473 ], [ 708539.502553086960688, 6182837.253841115161777 ], [ 708345.761581884464249, 6182898.753720592707396 ], [ 708122.297255725134164, 6182958.337032513692975 ], [ 707879.294703064253554, 6183007.524103786796331 ], [ 707616.753923901589587, 6183046.314934411086142 ], [ 707334.674918237142265, 6183074.70952438749373 ], [ 707033.057686070911586, 6183092.707873716019094 ], [ 706785.514151530223899, 6183091.826169850304723 ], [ 706592.044314615079202, 6183072.064412790350616 ], [ 706452.648175325477496, 6183033.422602538019419 ], [ 706367.325733661535196, 6182975.900739092379808 ], [ 706282.891205045161769, 6182928.303218450397253 ], [ 706199.344589476240799, 6182890.630040613003075 ], [ 706116.685886955005117, 6182862.881205579265952 ], [ 706034.915097481338307, 6182845.056713351979852 ], [ 705922.239411604590714, 6182833.644754827022552 ], [ 705778.658829324645922, 6182828.645330008119345 ], [ 705604.173350641736761, 6182830.058438893407583 ], [ 705398.782975555863231, 6182837.884081482887268 ], [ 705233.262250788044184, 6182858.766480177640915 ], [ 705107.61117633827962, 6182892.705634977668524 ], [ 705021.829752206569538, 6182939.701545882970095 ], [ 704975.917978392797522, 6182999.754212891682982 ], [ 704937.7177631536033, 6183074.628207942470908 ], [ 704907.229106488754041, 6183164.323531035333872 ], [ 704884.452008398366161, 6183268.840182168409228 ], [ 704869.386468882439658, 6183388.178161343559623 ], [ 704861.568631539470516, 6183503.057187765836716 ], [ 704860.998496369691566, 6183613.477261435240507 ], [ 704867.676063372986391, 6183719.438382351770997 ], [ 704881.601332549238577, 6183820.94055051356554 ], [ 704903.488794784294441, 6183912.920808603987098 ], [ 704933.338450077921152, 6183995.379156621173024 ], [ 704971.15029843011871, 6184068.31559456512332 ], [ 705016.92433984123636, 6184131.730122437700629 ], [ 705099.115736697916873, 6184184.26925103366375 ], [ 705217.724489000393078, 6184225.932980353012681 ], [ 705372.750596748664975, 6184256.721310397610068 ], [ 705564.194059942732565, 6184276.634241165593266 ], [ 705738.501760348794051, 6184277.236077110283077 ], [ 705895.673697966733016, 6184258.526818230748177 ], [ 706035.709872796549462, 6184220.506464527919888 ], [ 706158.610284838359803, 6184163.175016 ], [ 706286.223466132651083, 6184115.573355902917683 ], [ 706418.549416679656133, 6184077.701484236866236 ], [ 706555.588136479258537, 6184049.559401001781225 ], [ 706697.339625531458296, 6184031.147106196731329 ], [ 706828.508598471060395, 6184043.826256148517132 ], [ 706949.09505529794842, 6184087.596850858069956 ], [ 707059.098996012238786, 6184162.45889032445848 ], [ 707158.520420613815077, 6184268.41237455047667 ], [ 707246.092655943939462, 6184354.862817637622356 ], [ 707321.815702002495527, 6184421.810219589620829 ], [ 707385.689558789716102, 6184469.254580405540764 ], [ 707437.714226305368356, 6184497.195900084450841 ], [ 707521.091124228783883, 6184522.701150633394718 ], [ 707635.820252559962682, 6184545.770332052372396 ], [ 707781.901611298788339, 6184566.403444340452552 ], [ 707959.335200445493683, 6184584.600487496703863 ], [ 708159.407467714510858, 6184589.53471758030355 ], [ 708382.118413106072694, 6184581.206134587526321 ], [ 708627.468036619946361, 6184559.614738521166146 ], [ 708895.456338256364688, 6184524.7605293802917 ], [ 709104.697497835033573, 6184492.551431836560369 ], [ 709255.1915153558366, 6184462.987445888109505 ], [ 709346.938390818890184, 6184436.068571535870433 ], [ 709379.938124223961495, 6184411.794808780774474 ], [ 709430.364962199470028, 6184393.359746974892914 ], [ 709498.2189047455322, 6184380.763386117294431 ], [ 709583.499951861798763, 6184374.005726209841669 ], [ 709686.20810354850255, 6184373.086767250671983 ], [ 709839.140259927255102, 6184343.007419183850288 ], [ 710042.296420997940004, 6184283.767682009376585 ], [ 710295.676586760673672, 6184195.367555726319551 ], [ 710599.280757215223275, 6184077.807040332816541 ], [ 710857.578595241415314, 6183989.547655511647463 ], [ 711070.57010083924979, 6183930.589401261880994 ], [ 711238.255274008726701, 6183900.932277580723166 ], [ 711360.634114749846049, 6183900.576284470967948 ], [ 711512.40929352119565, 6183933.987893625162542 ], [ 711693.58081032242626, 6184001.167105043306947 ], [ 711904.148665154003538, 6184102.113918727263808 ], [ 712144.112858015811071, 6184236.828334674239159 ], [ 712345.871953102410771, 6184342.165040138177574 ], [ 712509.425950414035469, 6184418.124035120010376 ], [ 712634.774849950801581, 6184464.705319616012275 ], [ 712721.918651712592691, 6184481.908893628045917 ], [ 712804.142711483407766, 6184505.487227982841432 ], [ 712881.447029263130389, 6184535.440322679467499 ], [ 712953.831605051876977, 6184571.768177717924118 ], [ 713021.296438849531114, 6184614.470793096348643 ], [ 713091.944513363530859, 6184646.580543726682663 ], [ 713165.775828593410552, 6184668.097429607063532 ], [ 713242.790384539403021, 6184679.02145073749125 ], [ 713322.988181201741099, 6184679.352607121691108 ], [ 713457.590831870678812, 6184640.176807204261422 ], [ 713646.598336546681821, 6184561.494050985202193 ], [ 713890.010695229633711, 6184443.304338468238711 ], [ 714187.827907919418067, 6184285.607669653370976 ], [ 714448.487304890295491, 6184158.725102124735713 ], [ 714671.988886142382398, 6184062.656635884195566 ], [ 714858.33265167567879, 6183997.402270932681859 ], [ 715007.518601490068249, 6183962.962007268331945 ], [ 715119.511550219962373, 6183983.866253843531013 ], [ 715194.311497865477577, 6184060.115010657347739 ], [ 715231.918444426730275, 6184191.708277710713446 ], [ 715232.332389903254807, 6184378.646055003628135 ], [ 715222.641926293028519, 6184527.136576416902244 ], [ 715202.847053595818579, 6184637.179841951467097 ], [ 715172.947771811392158, 6184708.775851607322693 ], [ 715132.944080939982086, 6184741.92460538353771 ], [ 715097.034100624849088, 6184790.938142841681838 ], [ 715065.217830865993164, 6184855.8164639826864 ], [ 715037.495271663414314, 6184936.559568803757429 ], [ 715013.866423017228954, 6185033.167457306757569 ], [ 714963.341013509547338, 6185129.434249598532915 ], [ 714885.919043140253052, 6185225.359945679083467 ], [ 714781.600511909462512, 6185320.944545549340546 ], [ 714650.385419817175716, 6185416.188049210235476 ], [ 714549.428336065961048, 6185515.028006969019771 ], [ 714478.729260656284168, 6185617.464418826624751 ], [ 714438.288193587446585, 6185723.497284784913063 ], [ 714428.105134859681129, 6185833.126604842953384 ], [ 714430.361137707950547, 6185933.214481662027538 ], [ 714445.056202132022008, 6186023.760915242135525 ], [ 714472.190328131895512, 6186104.765905584208667 ], [ 714511.763515707338229, 6186176.229452687315643 ], [ 714552.764815177652054, 6186237.166366316378117 ], [ 714595.194226542720571, 6186287.576646473258734 ], [ 714639.051749802660197, 6186327.460293156094849 ], [ 714684.3373849572381, 6186356.817306365817785 ], [ 714765.145921202609316, 6186362.459315259940922 ], [ 714881.477358538424596, 6186344.38631983846426 ], [ 715033.331696965266019, 6186302.598320100456476 ], [ 715220.708936482667923, 6186237.095316046848893 ], [ 715380.014997413614765, 6186192.884747846052051 ], [ 715511.249879758106545, 6186169.966615496203303 ], [ 715614.413583515910432, 6186168.340918997302651 ], [ 715689.506108687259257, 6186188.00765835121274 ], [ 715754.882629596628249, 6186211.651331434026361 ], [ 715810.543146244017407, 6186239.271938245743513 ], [ 715856.487658629659563, 6186270.86947878729552 ], [ 715892.716166753321886, 6186306.44395305775106 ], [ 715919.94963966764044, 6186349.711604012176394 ], [ 715938.188077372615226, 6186400.672431654296815 ], [ 715947.431479868013412, 6186459.326435979455709 ], [ 715947.679847153951414, 6186525.673616990447044 ], [ 715926.29542382596992, 6186588.655421275645494 ], [ 715883.278209883952513, 6186648.27184883505106 ], [ 715818.628205327899195, 6186704.522899667732418 ], [ 715732.345410157809965, 6186757.408573774620891 ], [ 715635.444913509534672, 6186804.794982223771513 ], [ 715527.926715383073315, 6186846.682125014252961 ], [ 715409.790815778425895, 6186883.070002146065235 ], [ 715281.037214695592411, 6186913.958613620139658 ], [ 715174.231002789107151, 6186944.201470149680972 ], [ 715089.372180058970116, 6186973.798571736551821 ], [ 715026.460746505181305, 6187002.749918378889561 ], [ 714985.496702127857134, 6187031.055510077625513 ], [ 714950.60523789410945, 6187116.545599659904838 ], [ 714921.786353803938255, 6187259.220187125727534 ], [ 714899.040049857459962, 6187459.079272473230958 ], [ 714882.366326054558158, 6187716.122855704277754 ], [ 714857.556503906613216, 6187923.23219607770443 ], [ 714824.610583413508721, 6188080.407293593510985 ], [ 714783.528564575361088, 6188187.648148249834776 ], [ 714734.310447391821072, 6188244.954760049469769 ], [ 714684.018141696345992, 6188292.63093033246696 ], [ 714632.651647488819435, 6188330.676659098826349 ], [ 714580.210964768892154, 6188359.091946349479258 ], [ 714526.69609353679698, 6188377.876792083494365 ], [ 714467.833046745508909, 6188408.09895133972168 ], [ 714403.621824394678697, 6188449.758424118161201 ], [ 714334.062426484655589, 6188502.855210418812931 ], [ 714259.154853015206754, 6188567.389310240745544 ], [ 714196.965754318400286, 6188636.30088347941637 ], [ 714147.495130394236185, 6188709.589930134825408 ], [ 714110.742981242481619, 6188787.256450206041336 ], [ 714086.709306863253005, 6188869.300443695858121 ], [ 714069.511942032375373, 6188940.602552063763142 ], [ 714059.150886749848723, 6189001.162775307893753 ], [ 714055.626141015440226, 6189050.981113432906568 ], [ 714058.937704829266295, 6189090.057566436007619 ], [ 714080.363522704923525, 6189153.527826383709908 ], [ 714119.903594642295502, 6189241.391893275082111 ], [ 714177.557920641615056, 6189353.64976711012423 ], [ 714253.32650070276577, 6189490.301447888836265 ], [ 714320.783055591164157, 6189603.043637931346893 ], [ 714379.9275853066938, 6189691.876337238587439 ], [ 714430.760089849354699, 6189756.799545809626579 ], [ 714473.28056921926327, 6189797.813263643532991 ], [ 714514.776533534284681, 6189849.479868322610855 ], [ 714555.247982794418931, 6189911.799359844997525 ], [ 714594.69491699966602, 6189984.771738210693002 ], [ 714633.117336149793118, 6190068.397003419697285 ], [ 714681.03152508160565, 6190149.869752150028944 ], [ 714738.437483794754371, 6190229.18998440168798 ], [ 714805.335212289472111, 6190306.357700173743069 ], [ 714881.724710565758869, 6190381.372899467125535 ], [ 714939.157575735007413, 6190465.004373859614134 ], [ 714977.633807797217742, 6190557.25212334934622 ], [ 714997.153406752506271, 6190658.116147937253118 ], [ 714997.716372600989416, 6190767.596447622403502 ], [ 714970.056535845738836, 6190902.492999579757452 ], [ 714914.173896486754529, 6191062.805803808383644 ], [ 714830.068454524269328, 6191248.5348603092134 ], [ 714717.740209958283231, 6191459.680169082246721 ], [ 714603.313261825125664, 6191635.967129258438945 ], [ 714486.787610124913044, 6191777.395740838721395 ], [ 714368.163254857761785, 6191883.96600382309407 ], [ 714247.440196023671888, 6191955.677918212488294 ], [ 714102.318474273663014, 6192022.920444790273905 ], [ 713932.798089607967995, 6192085.693583556450903 ], [ 713738.879042026354, 6192143.997334511950612 ], [ 713520.561331528937444, 6192197.831697656773031 ], [ 713350.568532063043676, 6192256.151746052317321 ], [ 713228.900643628323451, 6192318.957479698583484 ], [ 713155.557666225242428, 6192386.248898596502841 ], [ 713130.539599853567779, 6192458.026002745144069 ], [ 713115.555748591315933, 6192523.717650347389281 ], [ 713110.60611243871972, 6192583.323841403238475 ], [ 713115.690691395662725, 6192636.84457591176033 ], [ 713130.809485462144949, 6192684.279853873886168 ], [ 713142.734809912042692, 6192803.928433407098055 ], [ 713151.466664745123126, 6192995.790314514189959 ], [ 713157.005049961619079, 6193259.865497190505266 ], [ 713159.349965561414137, 6193596.153981439769268 ], [ 713171.846740031382069, 6193860.66514107119292 ], [ 713194.495373371639289, 6194053.398976085707545 ], [ 713227.295865581952967, 6194174.355486484244466 ], [ 713270.248216662439518, 6194223.534672266803682 ], [ 713338.148548470111564, 6194271.409621903672814 ], [ 713430.996861004736274, 6194317.980335395783186 ], [ 713548.793154266662896, 6194363.246812743134797 ], [ 713691.537428255658597, 6194407.209053945727646 ], [ 713813.059230808052234, 6194457.797159605659544 ], [ 713913.358561923960224, 6194515.011129722930491 ], [ 713992.43542160349898, 6194578.850964297540486 ], [ 714050.289809846435674, 6194649.316663327626884 ], [ 714100.976441371603869, 6194773.769610379822552 ], [ 714144.495316179003567, 6194952.209805453196168 ], [ 714180.846434268518351, 6195184.637248546816409 ], [ 714210.029795640381053, 6195471.051939660683274 ], [ 714247.612487049191259, 6195732.542049940675497 ], [ 714293.594508494948968, 6195969.107579386793077 ], [ 714347.975859977770597, 6196180.748527998104692 ], [ 714410.756541497306898, 6196367.464895776472986 ], [ 714451.352277031517588, 6196516.301762975752354 ], [ 714469.76306658028625, 6196627.259129595011473 ], [ 714465.988910143729299, 6196700.336995636112988 ], [ 714440.029807721613906, 6196735.5353610990569 ], [ 714374.335223728674464, 6196775.568883412517607 ], [ 714268.905158164910972, 6196820.437562577426434 ], [ 714123.739611030439846, 6196870.141398594714701 ], [ 713938.838582325028256, 6196924.680391463451087 ], [ 713792.629276802530512, 6196974.311564654111862 ], [ 713685.111694462713785, 6197019.034918167628348 ], [ 713616.285835305694491, 6197058.850452004000545 ], [ 713586.151699331356212, 6197093.75816616602242 ], [ 713547.391623829491436, 6197199.154979249462485 ], [ 713500.005608799750917, 6197375.040891258046031 ], [ 713443.993654242367484, 6197621.415902191773057 ], [ 713379.355760157341138, 6197938.280012046918273 ], [ 713298.259736021049321, 6198204.78447309602052 ], [ 713200.705581833608449, 6198420.92928533628583 ], [ 713086.693297595018521, 6198586.714448767714202 ], [ 712956.222883305163123, 6198702.139963389374316 ], [ 712879.215066801989451, 6198820.390707205981016 ], [ 712855.669848085497506, 6198941.466680216602981 ], [ 712885.587227155570872, 6199065.367882422171533 ], [ 712968.967204012325965, 6199192.094313822686672 ], [ 713051.155017896089703, 6199296.216448521241546 ], [ 713132.150668806862086, 6199377.734286519698799 ], [ 713211.954156744643115, 6199436.647827817127109 ], [ 713290.565481709432788, 6199472.957072413526475 ], [ 713367.770349943661131, 6199496.414233637973666 ], [ 713443.568761447328143, 6199507.019311489537358 ], [ 713517.960716220433824, 6199504.772305968217552 ], [ 713590.946214263094589, 6199489.673217074945569 ], [ 713669.728112132521346, 6199452.60101280733943 ], [ 713754.30640982883051, 6199393.555693164467812 ], [ 713844.681107352022082, 6199312.537258147262037 ], [ 713940.852204701863229, 6199209.545707754790783 ], [ 714036.288052780320868, 6199123.450727514922619 ], [ 714130.988651587162167, 6199054.252317428588867 ], [ 714224.954001122387126, 6199001.950477495789528 ], [ 714318.184101386228576, 6198966.545207716524601 ], [ 714404.439801943255588, 6198959.115125882439315 ], [ 714483.721102793933824, 6198979.660231993533671 ], [ 714556.02800393756479, 6199028.180526049807668 ], [ 714621.360505374614149, 6199104.676008051261306 ], [ 714683.734767698915675, 6199190.13488067034632 ], [ 714743.150790910469368, 6199284.557143907994032 ], [ 714799.608575009508058, 6199387.942797762341797 ], [ 714853.108119995566085, 6199500.291842233389616 ], [ 714901.271873576333746, 6199589.322893265634775 ], [ 714944.099835751811042, 6199655.035950858145952 ], [ 714981.592006521532312, 6199697.43101501185447 ], [ 715013.748385885963216, 6199716.508085725829005 ], [ 715064.353117785416543, 6199732.973605217412114 ], [ 715133.406202219892293, 6199746.827573485672474 ], [ 715220.907639189390466, 6199758.069990529678762 ], [ 715326.85742869367823, 6199766.700856350362301 ], [ 715451.844878566451371, 6199768.287122785113752 ], [ 715595.869988807244226, 6199762.828789833933115 ], [ 715758.932759416406043, 6199750.325857497751713 ], [ 715941.033190393820405, 6199730.778325775638223 ], [ 716093.344941713032313, 6199725.860037725418806 ], [ 716215.868013374041766, 6199735.570993347093463 ], [ 716308.602405376732349, 6199759.911192640662193 ], [ 716371.548117721220478, 6199798.880635607987642 ], [ 716443.053264634218067, 6199856.226384069770575 ], [ 716523.117846115725115, 6199931.948438027873635 ], [ 716611.741862165508792, 6200026.046797482296824 ], [ 716708.925312783918343, 6200138.521462431177497 ], [ 716824.42533759213984, 6200249.62169155664742 ], [ 716958.241936590173282, 6200359.347484857775271 ], [ 717110.375109778135084, 6200467.698842333629727 ], [ 717280.824857155792415, 6200574.675763986073434 ], [ 717499.785661790287122, 6200669.578956604003906 ], [ 717767.25752368173562, 6200752.40842018648982 ], [ 718083.240442829788662, 6200823.1641547344625 ], [ 718447.734419234562665, 6200881.846160247921944 ], [ 718739.773089910740964, 6200939.839716276153922 ], [ 718959.356454858090729, 6200997.144822819158435 ], [ 719106.484514076728374, 6201053.761479876004159 ], [ 719181.157267566770315, 6201109.689687447622418 ], [ 719254.468516752356663, 6201174.036930229514837 ], [ 719326.418261633371003, 6201246.803208222612739 ], [ 719397.00650221016258, 6201327.988521425053477 ], [ 719466.233238482614979, 6201417.592869836837053 ], [ 719531.401940668234602, 6201531.036782988347113 ], [ 719592.512608767021447, 6201668.320260880514979 ], [ 719662.813892760546878, 6201875.683955354616046 ], [ 719782.05174259271007, 6202291.849821939133108 ] ] ] } }
]
}
